{"type":"FeatureCollection","features":[{"type":"Feature","id":1,"geometry":{"type":"Point","coordinates":[-122.68281614499995,45.513870490000045]},"properties":{"ObjectID":1,"USER_NAME":"Love Belizean","USER_CATEGORY":"Caribbean Restaurant","USER_ADDRESS":"1503 SW Broadway","USER_CITY":"Portland","USER_STATE":"OR","USER_ZIP":97201}},{"type":"Feature","id":2,"geometry":{"type":"Point","coordinates":[-122.67929071699996,45.51887670800005]},"properties":{"ObjectID":2,"USER_NAME":"Whole Bowl","USER_CATEGORY":"Vegetarian Restaurant","USER_ADDRESS":"701 SW 6th Ave","USER_CITY":"Portland","USER_STATE":"OR","USER_ZIP":97204}},{"type":"Feature","id":3,"geometry":{"type":"Point","coordinates":[-122.68538838399996,45.512282581000079]},"properties":{"ObjectID":3,"USER_NAME":"Money Bowl","USER_CATEGORY":"Food Truck","USER_ADDRESS":"1803 SW Park Ave","USER_CITY":"Portland","USER_STATE":"OR","USER_ZIP":97201}},{"type":"Feature","id":4,"geometry":{"type":"Point","coordinates":[-122.68132289999994,45.518709400000034]},"properties":{"ObjectID":4,"USER_NAME":"Marsh & Mallow Co","USER_CATEGORY":"Dessert Shop","USER_ADDRESS":"815 SW Park Ave Director Park","USER_CITY":"Portland","USER_STATE":"OR","USER_ZIP":97205}},{"type":"Feature","id":5,"geometry":{"type":"Point","coordinates":[-122.67966379499995,45.525606957000036]},"properties":{"ObjectID":5,"USER_NAME":"Butterfly Belly Asian Cuisine","USER_CATEGORY":"Asian Restaurant","USER_ADDRESS":"323 NW Park Ave","USER_CITY":"Portland","USER_STATE":"OR","USER_ZIP":97209}},{"type":"Feature","id":6,"geometry":{"type":"Point","coordinates":[-122.68374670399999,45.520951061000062]},"properties":{"ObjectID":6,"USER_NAME":"Petunia's Pies & Pastries","USER_CATEGORY":"Bakery","USER_ADDRESS":"610 SW 12th Ave","USER_CITY":"Portland","USER_STATE":"OR","USER_ZIP":97205}},{"type":"Feature","id":7,"geometry":{"type":"Point","coordinates":[-122.68303365599996,45.527350016000071]},"properties":{"ObjectID":7,"USER_NAME":"Verde Cocina en la Perla","USER_CATEGORY":"Mexican Restaurant","USER_ADDRESS":"1131 NW Hoyt St","USER_CITY":"Portland","USER_STATE":"OR","USER_ZIP":97209}},{"type":"Feature","id":8,"geometry":{"type":"Point","coordinates":[-122.66320391699998,45.513556337000068]},"properties":{"ObjectID":8,"USER_NAME":"El Pilon","USER_CATEGORY":"Food Truck","USER_ADDRESS":"262 SE Main St","USER_CITY":"Portland","USER_STATE":"OR","USER_ZIP":97214}},{"type":"Feature","id":9,"geometry":{"type":"Point","coordinates":[-122.65917657999995,45.516648714000041]},"properties":{"ObjectID":9,"USER_NAME":"Berlu Bakery","USER_CATEGORY":"Bakery","USER_ADDRESS":"661 SE Belmont St","USER_CITY":"Portland","USER_STATE":"OR","USER_ZIP":97214}},{"type":"Feature","id":10,"geometry":{"type":"Point","coordinates":[-122.66097776699996,45.509869305000052]},"properties":{"ObjectID":10,"USER_NAME":"Malek Egyptian Cuisine","USER_CATEGORY":"Mediterranean Restaurant","USER_ADDRESS":"1801 SE Grand Ave Suite 170","USER_CITY":"Portland","USER_STATE":"OR","USER_ZIP":97214}},{"type":"Feature","id":11,"geometry":{"type":"Point","coordinates":[-122.65842296299996,45.508382020000056]},"properties":{"ObjectID":11,"USER_NAME":"Ground Breaker Brewing and Gastropub","USER_CATEGORY":"Brewery","USER_ADDRESS":"2030 SE 7th Ave","USER_CITY":"Portland","USER_STATE":"OR","USER_ZIP":97214}},{"type":"Feature","id":12,"geometry":{"type":"Point","coordinates":[-122.65988853899995,45.521404816000029]},"properties":{"ObjectID":12,"USER_NAME":"kann","USER_CATEGORY":"Haitian Restaurant","USER_ADDRESS":"548 SE Ash St","USER_CITY":"Portland","USER_STATE":"OR","USER_ZIP":97214}},{"type":"Feature","id":13,"geometry":{"type":"Point","coordinates":[-122.65842296299996,45.508382020000056]},"properties":{"ObjectID":13,"USER_NAME":"Salvi PDX","USER_CATEGORY":"Food Truck","USER_ADDRESS":"2030 SE 7th Ave","USER_CITY":"Portland","USER_STATE":"OR","USER_ZIP":97214}},{"type":"Feature","id":14,"geometry":{"type":"Point","coordinates":[-122.65337294999995,45.512446238000052]},"properties":{"ObjectID":14,"USER_NAME":"Potato Champion","USER_CATEGORY":"Food Truck","USER_ADDRESS":"1207 SE Hawthorne Blvd","USER_CITY":"Portland","USER_STATE":"OR","USER_ZIP":97214}},{"type":"Feature","id":15,"geometry":{"type":"Point","coordinates":[-122.65518738099996,45.515453455000056]},"properties":{"ObjectID":15,"USER_NAME":"Evasion Brewing Portland Tasting Room","USER_CATEGORY":"Brewpub","USER_ADDRESS":"1030 SE Belmont St Suite 9","USER_CITY":"Portland","USER_STATE":"OR","USER_ZIP":97214}},{"type":"Feature","id":16,"geometry":{"type":"Point","coordinates":[-122.69871058099994,45.526366735000067]},"properties":{"ObjectID":16,"USER_NAME":"Harlow","USER_CATEGORY":"Health Food Restaurant","USER_ADDRESS":"505 NW 23rd Ave","USER_CITY":"Portland","USER_STATE":"OR","USER_ZIP":97210}},{"type":"Feature","id":17,"geometry":{"type":"Point","coordinates":[-122.69859449099999,45.533142707000081]},"properties":{"ObjectID":17,"USER_NAME":"Kate's Ice Cream","USER_CATEGORY":"Ice Cream Shop","USER_ADDRESS":"1430 NW 23rd Ave","USER_CITY":"Portland","USER_STATE":"OR","USER_ZIP":97210}},{"type":"Feature","id":18,"geometry":{"type":"Point","coordinates":[-122.66384379099998,45.53497499100007]},"properties":{"ObjectID":18,"USER_NAME":"Gluten Free Gem","USER_CATEGORY":"Bakery","USER_ADDRESS":"140 NE Broadway","USER_CITY":"Portland","USER_STATE":"OR","USER_ZIP":97232}},{"type":"Feature","id":19,"geometry":{"type":"Point","coordinates":[-122.70015654299999,45.536180351000041]},"properties":{"ObjectID":19,"USER_NAME":"Your Side Chicks","USER_CATEGORY":"Food Truck","USER_ADDRESS":"1845 NW 23rd Pl","USER_CITY":"Portland","USER_STATE":"OR","USER_ZIP":97210}},{"type":"Feature","id":20,"geometry":{"type":"Point","coordinates":[-122.69866012199998,45.534678691000067]},"properties":{"ObjectID":20,"USER_NAME":"Kirari West","USER_CATEGORY":"Bakery","USER_ADDRESS":"1668 NW 23rd Ave Suite 1","USER_CITY":"Portland","USER_STATE":"OR","USER_ZIP":97210}},{"type":"Feature","id":21,"geometry":{"type":"Point","coordinates":[-122.637098563,45.52519561500003]},"properties":{"ObjectID":21,"USER_NAME":"Mikiko Mochi Donuts","USER_CATEGORY":"Donut Shop","USER_ADDRESS":"300 NE 28th Ave","USER_CITY":"Portland","USER_STATE":"OR","USER_ZIP":97232}},{"type":"Feature","id":22,"geometry":{"type":"Point","coordinates":[-122.64013147099996,45.504591849000064]},"properties":{"ObjectID":22,"USER_NAME":"New Cascadia Traditional","USER_CATEGORY":"Bakery","USER_ADDRESS":"2502 SE Division St","USER_CITY":"Portland","USER_STATE":"OR","USER_ZIP":97202}},{"type":"Feature","id":23,"geometry":{"type":"Point","coordinates":[-122.65366022599994,45.489833128000043]},"properties":{"ObjectID":23,"USER_NAME":"Your Side Chicks","USER_CATEGORY":"Food Truck","USER_ADDRESS":"4535 SE McLoughlin Blvd","USER_CITY":"Portland","USER_STATE":"OR","USER_ZIP":97202}},{"type":"Feature","id":24,"geometry":{"type":"Point","coordinates":[-122.63747750899995,45.504680195000049]},"properties":{"ObjectID":24,"USER_NAME":"Schilling Cider House & Gluten Free Kitchen","USER_CATEGORY":"Cider Bar","USER_ADDRESS":"2800 SE Division St","USER_CITY":"Portland","USER_STATE":"OR","USER_ZIP":97202}},{"type":"Feature","id":25,"geometry":{"type":"Point","coordinates":[-122.67571256599996,45.549780785000053]},"properties":{"ObjectID":25,"USER_NAME":"Kate's Ice Cream","USER_CATEGORY":"Ice Cream Shop","USER_ADDRESS":"3713 N Mississippi Ave","USER_CITY":"Portland","USER_STATE":"OR","USER_ZIP":97227}},{"type":"Feature","id":26,"geometry":{"type":"Point","coordinates":[-122.63546233199997,45.504715608000026]},"properties":{"ObjectID":26,"USER_NAME":"Mestizo","USER_CATEGORY":"Latin American Restaurant","USER_ADDRESS":"2910 SE Division St","USER_CITY":"Portland","USER_STATE":"OR","USER_ZIP":97202}},{"type":"Feature","id":27,"geometry":{"type":"Point","coordinates":[-122.62800746699997,45.505222252000067]},"properties":{"ObjectID":27,"USER_NAME":"Crave Creperie","USER_CATEGORY":"Food Truck","USER_ADDRESS":"2415 SE 35th Pl","USER_CITY":"Portland","USER_STATE":"OR","USER_ZIP":97214}},{"type":"Feature","id":28,"geometry":{"type":"Point","coordinates":[-122.63679237199995,45.493232191000061]},"properties":{"ObjectID":28,"USER_NAME":"Best Friend Juice Bar & Cafe","USER_CATEGORY":"Juice Bar","USER_ADDRESS":"2832 SE Gladstone St","USER_CITY":"Portland","USER_STATE":"OR","USER_ZIP":97202}},{"type":"Feature","id":29,"geometry":{"type":"Point","coordinates":[-122.62520388799999,45.504893179000078]},"properties":{"ObjectID":29,"USER_NAME":"Harlow","USER_CATEGORY":"Health Food Restaurant","USER_ADDRESS":"3715 SE Division St","USER_CITY":"Portland","USER_STATE":"OR","USER_ZIP":97202}},{"type":"Feature","id":30,"geometry":{"type":"Point","coordinates":[-122.64907236299996,45.47828985600006]},"properties":{"ObjectID":30,"USER_NAME":"Bastion PDX","USER_CATEGORY":"Health Food Restaurant","USER_ADDRESS":"6116 SE Milwaukie Ave","USER_CITY":"Portland","USER_STATE":"OR","USER_ZIP":97202}},{"type":"Feature","id":31,"geometry":{"type":"Point","coordinates":[-122.62354703699998,45.505010735000042]},"properties":{"ObjectID":31,"USER_NAME":"DesiPDX","USER_CATEGORY":"Food Truck","USER_ADDRESS":"3829 SE Division St","USER_CITY":"Portland","USER_STATE":"OR","USER_ZIP":97202}},{"type":"Feature","id":32,"geometry":{"type":"Point","coordinates":[-122.69923562299999,45.477599732000044]},"properties":{"ObjectID":32,"USER_NAME":"Verde Cocina Hillsdale","USER_CATEGORY":"Mexican Restaurant","USER_ADDRESS":"6446 SW Capitol Hwy","USER_CITY":"Portland","USER_STATE":"OR","USER_ZIP":97239}},{"type":"Feature","id":33,"geometry":{"type":"Point","coordinates":[-122.62076231799995,45.536904799000069]},"properties":{"ObjectID":33,"USER_NAME":"Missionary Chocolates","USER_CATEGORY":"Chocolate Shop","USER_ADDRESS":"1925 NE 42nd Ave F","USER_CITY":"Portland","USER_STATE":"OR","USER_ZIP":97213}},{"type":"Feature","id":34,"geometry":{"type":"Point","coordinates":[-122.64659693599998,45.558986210000057]},"properties":{"ObjectID":34,"USER_NAME":"Zilla Sake","USER_CATEGORY":"Sushi Restaurant","USER_ADDRESS":"1806 NE Alberta St","USER_CITY":"Portland","USER_STATE":"OR","USER_ZIP":97211}},{"type":"Feature","id":35,"geometry":{"type":"Point","coordinates":[-122.62466082499998,45.548437333000038]},"properties":{"ObjectID":35,"USER_NAME":"Tacovore","USER_CATEGORY":"Taco Restaurant","USER_ADDRESS":"3707 NE Fremont St","USER_CITY":"Portland","USER_STATE":"OR","USER_ZIP":97212}},{"type":"Feature","id":36,"geometry":{"type":"Point","coordinates":[-122.65331897099998,45.467400465000026]},"properties":{"ObjectID":36,"USER_NAME":"La Mai Plate","USER_CATEGORY":"Food Truck","USER_ADDRESS":"7875 SE 13th Ave","USER_CITY":"Portland","USER_STATE":"OR","USER_ZIP":97202}},{"type":"Feature","id":37,"geometry":{"type":"Point","coordinates":[-122.71370605699997,45.467654185000072]},"properties":{"ObjectID":37,"USER_NAME":"Salvi PDX","USER_CATEGORY":"Salvadoran Restaurant","USER_ADDRESS":"7840 SW Capitol Hwy","USER_CITY":"Portland","USER_STATE":"OR","USER_ZIP":97219}},{"type":"Feature","id":38,"geometry":{"type":"Point","coordinates":[-122.65475020399998,45.464280005000035]},"properties":{"ObjectID":38,"USER_NAME":"Sellwood Fish & Chips","USER_CATEGORY":"Food Truck","USER_ADDRESS":"1122 SE Tacoma St","USER_CITY":"Portland","USER_STATE":"OR","USER_ZIP":97202}},{"type":"Feature","id":39,"geometry":{"type":"Point","coordinates":[-122.61631278399994,45.54838737700004]},"properties":{"ObjectID":39,"USER_NAME":"Happy Day Juice Co.","USER_CATEGORY":"Juice Bar","USER_ADDRESS":"4539 NE Fremont St","USER_CITY":"Portland","USER_STATE":"OR","USER_ZIP":97213}},{"type":"Feature","id":40,"geometry":{"type":"Point","coordinates":[-122.61727167399999,45.478983878000065]},"properties":{"ObjectID":40,"USER_NAME":"Portland Fish Market & Fish And Chips Window","USER_CATEGORY":"Restaurant","USER_ADDRESS":"4404 SE Woodstock Blvd","USER_CITY":"Portland","USER_STATE":"OR","USER_ZIP":97206}},{"type":"Feature","id":41,"geometry":{"type":"Point","coordinates":[-122.68177955499999,45.570697573000075]},"properties":{"ObjectID":41,"USER_NAME":"Honey Butter Country Fare","USER_CATEGORY":"Food Truck","USER_ADDRESS":"6550 N Interstate Ave","USER_CITY":"Portland","USER_STATE":"OR","USER_ZIP":97217}},{"type":"Feature","id":42,"geometry":{"type":"Point","coordinates":[-122.62025252999996,45.555984190000061]},"properties":{"ObjectID":42,"USER_NAME":"Tiny Moreso","USER_CATEGORY":"Vegan Restaurant","USER_ADDRESS":"4520 NE 42nd Ave","USER_CITY":"Portland","USER_STATE":"OR","USER_ZIP":97218}},{"type":"Feature","id":43,"geometry":{"type":"Point","coordinates":[-122.70901554399995,45.459745273000067]},"properties":{"ObjectID":43,"USER_NAME":"Sinful Confections","USER_CATEGORY":"Bakery","USER_ADDRESS":"9053 SW Barbur Blvd","USER_CITY":"Portland","USER_STATE":"OR","USER_ZIP":97219}},{"type":"Feature","id":44,"geometry":{"type":"Point","coordinates":[-122.59173712799998,45.526609600000029]},"properties":{"ObjectID":44,"USER_NAME":"Tierra del Sol Cuisine","USER_CATEGORY":"Mexican Restaurant","USER_ADDRESS":"6935 NE Glisan St","USER_CITY":"Portland","USER_STATE":"OR","USER_ZIP":97213}},{"type":"Feature","id":45,"geometry":{"type":"Point","coordinates":[-122.74239781399996,45.587578852000036]},"properties":{"ObjectID":45,"USER_NAME":"Flourish Plant-Based Kitchen","USER_CATEGORY":"Food Truck","USER_ADDRESS":"7316 N Lombard St","USER_CITY":"Portland","USER_STATE":"OR","USER_ZIP":97203}},{"type":"Feature","id":46,"geometry":{"type":"Point","coordinates":[-122.74769852999998,45.58926122500003]},"properties":{"ObjectID":46,"USER_NAME":"Chem Gio","USER_CATEGORY":"Vietnamese Restaurant","USER_ADDRESS":"7955 N Lombard St","USER_CITY":"Portland","USER_STATE":"OR","USER_ZIP":97203}},{"type":"Feature","id":47,"geometry":{"type":"Point","coordinates":[-122.79927791199998,45.488999749000072]},"properties":{"ObjectID":47,"USER_NAME":"Hold The Wheat","USER_CATEGORY":"Bakery","USER_ADDRESS":"11900 SW Canyon Rd","USER_CITY":"Beaverton","USER_STATE":"OR","USER_ZIP":97005}},{"type":"Feature","id":48,"geometry":{"type":"Point","coordinates":[-122.75452911099995,45.590265419000048]},"properties":{"ObjectID":48,"USER_NAME":"Yuginong","USER_CATEGORY":"Korean Restaurant","USER_ADDRESS":"8539 N Lombard St","USER_CITY":"Portland","USER_STATE":"OR","USER_ZIP":97203}},{"type":"Feature","id":49,"geometry":{"type":"Point","coordinates":[-122.67012837499999,45.420283315000063]},"properties":{"ObjectID":49,"USER_NAME":"Kyra's Bake Shop","USER_CATEGORY":"Bakery","USER_ADDRESS":"599 A Ave","USER_CITY":"Lake Oswego","USER_STATE":"OR","USER_ZIP":97034}},{"type":"Feature","id":50,"geometry":{"type":"Point","coordinates":[-122.66927635399998,45.42037861700004]},"properties":{"ObjectID":50,"USER_NAME":"Casa Pequena Taqueria","USER_CATEGORY":"Mexican Restaurant","USER_ADDRESS":"430 5th St","USER_CITY":"Lake Oswego","USER_STATE":"OR","USER_ZIP":97034}}]}