{"type":"FeatureCollection","features":[{"type":"Feature","id":1,"geometry":{"type":"Point","coordinates":[-122.65116126478911,45.548909847958541]},"properties":{"OBJECTID":1,"Category":"Grocery","Name":"Whole Foods Market","Address":"3535 NE 15th Ave","City":"Portland","State":"OR","ZIP":"97212","Notes":null}},{"type":"Feature","id":2,"geometry":{"type":"Point","coordinates":[-122.61816610038592,45.537614875456562]},"properties":{"OBJECTID":2,"Category":"Grocery","Name":"Whole Foods Market","Address":"4301 NE SAndy Blvd","City":"Portland","State":"OR","ZIP":"97213","Notes":null}},{"type":"Feature","id":3,"geometry":{"type":"Point","coordinates":[-122.6367735570428,45.523275244398683]},"properties":{"OBJECTID":3,"Category":"Grocery","Name":"Whole Foods Market","Address":"2825 E Burnside St","City":"Portland","State":"OR","ZIP":"97214","Notes":null}},{"type":"Feature","id":4,"geometry":{"type":"Point","coordinates":[-122.68366371673363,45.523291065679821]},"properties":{"OBJECTID":4,"Category":"Grocery","Name":"Whole Foods Market","Address":"1210 NW Couch St","City":"Portland","State":"OR","ZIP":"97209","Notes":null}},{"type":"Feature","id":5,"geometry":{"type":"Point","coordinates":[-122.87744271667586,45.533708500641701]},"properties":{"OBJECTID":5,"Category":"Grocery","Name":"Whole Foods Market","Address":"9940 NE Cornell Rd","City":"Hillsboro","State":"OR","ZIP":"97124","Notes":null}},{"type":"Feature","id":6,"geometry":{"type":"Point","coordinates":[-122.8018492959727,45.442523707592194]},"properties":{"OBJECTID":6,"Category":"Grocery","Name":"Whole Foods Market","Address":"12220 SW Scholls Ferry Rd","City":"Tigard","State":"OR","ZIP":"97223","Notes":null}},{"type":"Feature","id":7,"geometry":{"type":"Point","coordinates":[-122.66198423111253,45.415786341439407]},"properties":{"OBJECTID":7,"Category":"Grocery","Name":"Whole Foods Market","Address":"11 S State St","City":"Lake Oswego","State":"OR","ZIP":"97034","Notes":null}},{"type":"Feature","id":8,"geometry":{"type":"Point","coordinates":[-122.75149612906493,45.394486144031632]},"properties":{"OBJECTID":8,"Category":"Grocery","Name":"Whole Foods Market","Address":"7380 SW Bridgeport Rd","City":"Tigard","State":"OR","ZIP":"97224","Notes":null}},{"type":"Feature","id":9,"geometry":{"type":"Point","coordinates":[-122.4347366537141,45.510544057398334]},"properties":{"OBJECTID":9,"Category":"Grocery","Name":"Natural Grocers","Address":"407 NW Burnside Rd","City":"Gresham","State":"OR","ZIP":"97030","Notes":null}},{"type":"Feature","id":10,"geometry":{"type":"Point","coordinates":[-122.66171599237208,45.559714130294402]},"properties":{"OBJECTID":10,"Category":"Grocery","Name":"Natural Grocers","Address":"5055 NE Martin Luther King Jr Blvd","City":"Portland","State":"OR","ZIP":"97211","Notes":null}},{"type":"Feature","id":11,"geometry":{"type":"Point","coordinates":[-122.79823223846432,45.491825205076829]},"properties":{"OBJECTID":11,"Category":"Grocery","Name":"Natural Grocers","Address":"3805 SW 117th Ave","City":"Beaverton","State":"OR","ZIP":"97005","Notes":null}},{"type":"Feature","id":12,"geometry":{"type":"Point","coordinates":[-122.5784149366996,45.440950136337221]},"properties":{"OBJECTID":12,"Category":"Grocery","Name":"Natural Gorcers","Address":"11424 SE 82nd Ave","City":"Happy Valley","State":"OR","ZIP":"97086","Notes":null}},{"type":"Feature","id":13,"geometry":{"type":"Point","coordinates":[-122.78147025287939,45.425225712638785]},"properties":{"OBJECTID":13,"Category":"Grocery","Name":"Natural Grocers","Address":"13115 SW Pacific Hwy","City":"Tigard","State":"OR","ZIP":"97223","Notes":null}},{"type":"Feature","id":14,"geometry":{"type":"Point","coordinates":[-122.73154880461909,45.584906203096715]},"properties":{"OBJECTID":14,"Category":"Grocery","Name":"New Seasons Market","Address":"6300 N Lombard St","City":"Portland","State":"OR","ZIP":"97203","Notes":null}},{"type":"Feature","id":15,"geometry":{"type":"Point","coordinates":[-122.68174729851721,45.568815458872159]},"properties":{"OBJECTID":15,"Category":"Grocery","Name":"New Seasons Market","Address":"6400 N Interstate Ave","City":"Portland","State":"OR","ZIP":"97217","Notes":null}},{"type":"Feature","id":16,"geometry":{"type":"Point","coordinates":[-122.66732019515412,45.548009105433131]},"properties":{"OBJECTID":16,"Category":"Grocery","Name":"New Seasons Market","Address":"3445 N Williams Ave","City":"Portland","State":"OR","ZIP":"97227","Notes":null}},{"type":"Feature","id":17,"geometry":{"type":"Point","coordinates":[-122.63018623981041,45.561207695762775]},"properties":{"OBJECTID":17,"Category":"Grocery","Name":"New Seasons Market","Address":"5320 NE 33rd Ave","City":"Portland","State":"OR","ZIP":"97211","Notes":null}},{"type":"Feature","id":18,"geometry":{"type":"Point","coordinates":[-122.63248773704308,45.535010629302775]},"properties":{"OBJECTID":18,"Category":"Grocery","Name":"New Seasons Market","Address":"3210 NE Broadway","City":"Portland","State":"OR","ZIP":"97232","Notes":null}},{"type":"Feature","id":19,"geometry":{"type":"Point","coordinates":[-122.69623835474198,45.533743731035031]},"properties":{"OBJECTID":19,"Category":"Grocery","Name":"New Seasons Market","Address":"2170 NW Raleigh St","City":"Portland","State":"OR","ZIP":"97210","Notes":null}},{"type":"Feature","id":20,"geometry":{"type":"Point","coordinates":[-122.62071704180666,45.511796760987302]},"properties":{"OBJECTID":20,"Category":"Grocery","Name":"New Seasons Market","Address":"4034 SE Hawthorne Blvd","City":"Portland","State":"OR","ZIP":"97214","Notes":null}},{"type":"Feature","id":21,"geometry":{"type":"Point","coordinates":[-122.64606423285015,45.5043012703945]},"properties":{"OBJECTID":21,"Category":"Grocery","Name":"New Seasons Market","Address":"1954 SE Division St","City":"Portland","State":"OR","ZIP":"97202","Notes":null}},{"type":"Feature","id":22,"geometry":{"type":"Point","coordinates":[-122.61622069443361,45.47874839220686]},"properties":{"OBJECTID":22,"Category":"Grocery","Name":"New Seasons Market","Address":"4500 SE Woodstock Blvd","City":"Portland","State":"OR","ZIP":"97206","Notes":null}},{"type":"Feature","id":23,"geometry":{"type":"Point","coordinates":[-122.49993734452103,45.428419926456947]},"properties":{"OBJECTID":23,"Category":"Grocery","Name":"New Seasons Market","Address":"15861 SE Happy Valley Town Center Dr","City":"Happy Valley","State":"OR","ZIP":"97086","Notes":null}},{"type":"Feature","id":24,"geometry":{"type":"Point","coordinates":[-122.65368722136681,45.463976032259879]},"properties":{"OBJECTID":24,"Category":"Grocery","Name":"New Season Market","Address":"1214 SE Tacoma St","City":"Portland","State":"OR","ZIP":"97202","Notes":null}},{"type":"Feature","id":25,"geometry":{"type":"Point","coordinates":[-122.75229327069188,45.485308451849725]},"properties":{"OBJECTID":25,"Category":"Grocery","Name":"New Seasons Market","Address":"7300 SW Beaverton Hillside Hwy","City":"Portland","State":"OR","ZIP":"97225","Notes":null}},{"type":"Feature","id":26,"geometry":{"type":"Point","coordinates":[-122.70293488375671,45.433724151014808]},"properties":{"OBJECTID":26,"Category":"Grocery","Name":"New Seasons Market","Address":"3 Monroe Pkwy","City":"Lake Oswego","State":"OR","ZIP":"97035","Notes":null}},{"type":"Feature","id":27,"geometry":{"type":"Point","coordinates":[-122.67757745461392,45.405420019151308]},"properties":{"OBJECTID":27,"Category":"Grocery","Name":"New Seasons Market","Address":"1377 McVey Ave","City":"Lake Oswego","State":"OR","ZIP":"97034","Notes":null}},{"type":"Feature","id":28,"geometry":{"type":"Point","coordinates":[-122.75406864532385,45.384815637322788]},"properties":{"OBJECTID":28,"Category":"Grocery","Name":"New Seasons Market","Address":"7703 SW Nyberg St","City":"Tualatin","State":"OR","ZIP":"97062","Notes":null}},{"type":"Feature","id":29,"geometry":{"type":"Point","coordinates":[-122.81248589960393,45.494363944687279]},"properties":{"OBJECTID":29,"Category":"Grocery","Name":"New Seasons Market","Address":"3495 SW Cedar Hills Blvd","City":"Beaverton","State":"OR","ZIP":"97005","Notes":null}},{"type":"Feature","id":30,"geometry":{"type":"Point","coordinates":[-122.86538680364181,45.537238244565245]},"properties":{"OBJECTID":30,"Category":"Grocery","Name":"New Seasons Market","Address":"10940 NE Evergreen Pkwy","City":"Hillsboro","State":"OR","ZIP":"97006","Notes":null}},{"type":"Feature","id":31,"geometry":{"type":"Point","coordinates":[-122.91920150183446,45.534250978418719]},"properties":{"OBJECTID":31,"Category":"Grocery","Name":"New Seasons Market","Address":"1453 NE 61st Ave","City":"Hillsboro","State":"OR","ZIP":"97124","Notes":null}}]}