{"type":"FeatureCollection","features":[{"type":"Feature","geometry":{"type":"Point","coordinates":[-122.43744101840221,45.507496740672302]},"properties":{"ADDRESS":"1333 NW EASTMAN PKWY","CITY":"GRESHAM","STATE":"OR","OBJECTID":75,"DISTRICT":"GRESHAM FIRE & EMERG SRVCS"}},{"type":"Feature","geometry":{"type":"Point","coordinates":[-122.53666355635391,45.557683417474763]},"properties":{"ADDRESS":"4800 NE 122ND AVE","CITY":"PORTLAND","STATE":"OR","OBJECTID":103,"DISTRICT":"PORTLAND FIRE & RESCUE"}},{"type":"Feature","geometry":{"type":"Point","coordinates":[-122.62241214747644,45.510632808258187]},"properties":{"ADDRESS":"1706 SE CESAR E CHAVEZ BLVD","CITY":"PORTLAND","STATE":"OR","OBJECTID":101,"DISTRICT":"PORTLAND FIRE & RESCUE"}},{"type":"Feature","geometry":{"type":"Point","coordinates":[-122.68324955296347,45.463473919464867]},"properties":{"ADDRESS":"451 SW TAYLORS FERRY RD","CITY":"PORTLAND","STATE":"OR","OBJECTID":107,"DISTRICT":"PORTLAND FIRE & RESCUE"}},{"type":"Feature","geometry":{"type":"Point","coordinates":[-122.66824965682578,45.513188975915412]},"properties":{"ADDRESS":"5 SE MADISON ST","CITY":"PORTLAND","STATE":"OR","OBJECTID":118,"DISTRICT":"PORTLAND FIRE & RESCUE"}},{"type":"Feature","geometry":{"type":"Point","coordinates":[-122.68148871486942,45.406530474230941]},"properties":{"ADDRESS":"1880 SW SOUTH SHORE BLVD","CITY":"LAKE OSWEGO","STATE":"OR","OBJECTID":129,"DISTRICT":"LAKE OSWEGO F&R&LIFE SAFETY"}},{"type":"Feature","geometry":{"type":"Point","coordinates":[-122.39370166094285,45.533452423780084]},"properties":{"ADDRESS":"600 SW CHERRY PARK RD","CITY":"TROUTDALE","STATE":"OR","OBJECTID":95,"DISTRICT":"GRESHAM FIRE & EMERG SRVCS"}},{"type":"Feature","geometry":{"type":"Point","coordinates":[-122.72262293554694,45.582176426009958]},"properties":{"ADDRESS":"5247 N LOMBARD ST","CITY":"PORTLAND","STATE":"OR","OBJECTID":46,"DISTRICT":"PORTLAND FIRE & RESCUE"}},{"type":"Feature","geometry":{"type":"Point","coordinates":[-122.85633117831674,45.448339571115184]},"properties":{"ADDRESS":"9940 SW 175TH AVE","CITY":"ALOHA","STATE":"OR","OBJECTID":93,"DISTRICT":"TUALATIN VALLEY FIRE & RESCUE"}},{"type":"Feature","geometry":{"type":"Point","coordinates":[-122.53083893664555,45.447436201161963]},"properties":{"ADDRESS":"12901 SE KING RD","CITY":"HAPPY VALLEY","STATE":"OR","OBJECTID":142,"DISTRICT":"CLACKAMAS CO. DISTRICT #1"}},{"type":"Feature","geometry":{"type":"Point","coordinates":[-122.56894898520729,45.481147299869917]},"properties":{"ADDRESS":"5707 SE 92ND AVE","CITY":"PORTLAND","STATE":"OR","OBJECTID":113,"DISTRICT":"PORTLAND FIRE & RESCUE"}},{"type":"Feature","geometry":{"type":"Point","coordinates":[-122.70752848004747,45.462061238188355]},"properties":{"ADDRESS":"8720 SW 30TH AVE","CITY":"PORTLAND","STATE":"OR","OBJECTID":50,"DISTRICT":"PORTLAND FIRE & RESCUE"}},{"type":"Feature","geometry":{"type":"Point","coordinates":[-122.80604181784533,45.428056967305352]},"properties":{"ADDRESS":"12617 SW WALNUT ST","CITY":"TIGARD","STATE":"OR","OBJECTID":44,"DISTRICT":"TUALATIN VALLEY FIRE & RESCUE"}},{"type":"Feature","geometry":{"type":"Point","coordinates":[-122.48511904102139,45.508668191240645]},"properties":{"ADDRESS":"1927 SE 174TH AVE","CITY":"PORTLAND","STATE":"OR","OBJECTID":54,"DISTRICT":"PORTLAND/GRESHAM - SHARED"}},{"type":"Feature","geometry":{"type":"Point","coordinates":[-122.60862113038625,45.491548301257041]},"properties":{"ADDRESS":"5211 SE MALL ST","CITY":"PORTLAND","STATE":"OR","OBJECTID":52,"DISTRICT":"PORTLAND FIRE & RESCUE"}},{"type":"Feature","geometry":{"type":"Point","coordinates":[-122.69881337370728,45.508997788755885]},"properties":{"ADDRESS":"1920 SW SPRING ST","CITY":"PORTLAND","STATE":"OR","OBJECTID":61,"DISTRICT":"PORTLAND FIRE & RESCUE"}},{"type":"Feature","geometry":{"type":"Point","coordinates":[-122.78099990847134,45.458699672884769]},"properties":{"ADDRESS":"8480 SW SCHOLLS FERRY RD","CITY":"BEAVERTON","STATE":"OR","OBJECTID":49,"DISTRICT":"TUALATIN VALLEY FIRE & RESCUE"}},{"type":"Feature","geometry":{"type":"Point","coordinates":[-122.60585321168843,45.541513731467042]},"properties":{"ADDRESS":"5540 NE SANDY BLVD","CITY":"PORTLAND","STATE":"OR","OBJECTID":64,"DISTRICT":"PORTLAND FIRE & RESCUE"}},{"type":"Feature","geometry":{"type":"Point","coordinates":[-122.66686981939654,45.420777509608406]},"properties":{"ADDRESS":"300 B AVE","CITY":"LAKE OSWEGO","STATE":"OR","OBJECTID":167,"DISTRICT":"LAKE OSWEGO F&R&LIFE SAFETY"}},{"type":"Feature","geometry":{"type":"Point","coordinates":[-122.62560758070619,45.332299206856959]},"properties":{"ADDRESS":"19001 SOUTH END RD","CITY":"OREGON CITY","STATE":"OR","OBJECTID":164,"DISTRICT":"CLACKAMAS CO. DISTRICT #1"}},{"type":"Feature","geometry":{"type":"Point","coordinates":[-122.7616388937502,45.48726320739258]},"properties":{"ADDRESS":"8299 SW BEAVERTON HILLSDALE HWY","CITY":"PORTLAND","STATE":"OR","OBJECTID":119,"DISTRICT":"TUALATIN VALLEY FIRE & RESCUE"}},{"type":"Feature","geometry":{"type":"Point","coordinates":[-123.13237857379997,45.531403715938247]},"properties":{"ADDRESS":"801 GALES CREEK RD","CITY":"FOREST GROVE","STATE":"OR","OBJECTID":70,"DISTRICT":"OREGON DEPT OF FORESTRY"}},{"type":"Feature","geometry":{"type":"Point","coordinates":[-122.76396776354785,45.336011696770086]},"properties":{"ADDRESS":"8455 SW ELLIGSEN RD","CITY":"WILSONVILLE","STATE":"OR","OBJECTID":169,"DISTRICT":"TUALATIN VALLEY FIRE & RESCUE"}},{"type":"Feature","geometry":{"type":"Point","coordinates":[-122.75683904966004,45.590126625824908]},"properties":{"ADDRESS":"7205 N ALTA AVE","CITY":"PORTLAND","STATE":"OR","OBJECTID":62,"DISTRICT":"PORTLAND FIRE & RESCUE"}},{"type":"Feature","geometry":{"type":"Point","coordinates":[-122.60462018502776,45.355794182197904]},"properties":{"ADDRESS":"624 7TH ST","CITY":"OREGON CITY","STATE":"OR","OBJECTID":138,"DISTRICT":"CLACKAMAS CO. DISTRICT #1"}},{"type":"Feature","geometry":{"type":"Point","coordinates":[-122.7249037212224,45.425756758936018]},"properties":{"ADDRESS":"4900 MELROSE ST","CITY":"LAKE OSWEGO","STATE":"OR","OBJECTID":126,"DISTRICT":"LAKE OSWEGO F&R&LIFE SAFETY"}},{"type":"Feature","geometry":{"type":"Point","coordinates":[-122.48620184151879,45.443712834750627]},"properties":{"ADDRESS":"10921 SE 172ND AVE","CITY":"HAPPY VALLEY","STATE":"OR","OBJECTID":159,"DISTRICT":"CLACKAMAS CO. DISTRICT #1"}},{"type":"Feature","geometry":{"type":"Point","coordinates":[-122.58767577226988,45.523209825638659]},"properties":{"ADDRESS":"7301 E BURNSIDE ST","CITY":"PORTLAND","STATE":"OR","OBJECTID":111,"DISTRICT":"PORTLAND FIRE & RESCUE"}},{"type":"Feature","geometry":{"type":"Point","coordinates":[-122.68297421034573,45.509805223185921]},"properties":{"ADDRESS":"511 SW COLLEGE ST","CITY":"PORTLAND","STATE":"OR","OBJECTID":58,"DISTRICT":"PORTLAND FIRE & RESCUE"}},{"type":"Feature","geometry":{"type":"Point","coordinates":[-122.8681965380178,45.543316642755222]},"properties":{"ADDRESS":"3355 NW 185TH AVE","CITY":"PORTLAND","STATE":"OR","OBJECTID":53,"DISTRICT":"TUALATIN VALLEY FIRE & RESCUE"}},{"type":"Feature","geometry":{"type":"Point","coordinates":[-122.64574098038334,45.563037302514388]},"properties":{"ADDRESS":"1905 NE KILLINGSWORTH ST","CITY":"PORTLAND","STATE":"OR","OBJECTID":72,"DISTRICT":"PORTLAND FIRE & RESCUE"}},{"type":"Feature","geometry":{"type":"Point","coordinates":[-122.68873053563463,45.528803396668984]},"properties":{"ADDRESS":"1715 NW JOHNSON ST","CITY":"PORTLAND","STATE":"OR","OBJECTID":104,"DISTRICT":"PORTLAND FIRE & RESCUE"}},{"type":"Feature","geometry":{"type":"Point","coordinates":[-122.83575816559743,45.358683525523773]},"properties":{"ADDRESS":"15440 SW OREGON ST","CITY":"SHERWOOD","STATE":"OR","OBJECTID":66,"DISTRICT":"TUALATIN VALLEY FIRE & RESCUE"}},{"type":"Feature","geometry":{"type":"Point","coordinates":[-122.46798262504963,45.479646770249374]},"properties":{"ADDRESS":"2301 SW PLEASANT VIEW DR","CITY":"GRESHAM","STATE":"OR","OBJECTID":82,"DISTRICT":"GRESHAM FIRE & EMERG SRVCS"}},{"type":"Feature","geometry":{"type":"Point","coordinates":[-122.56842288416618,45.373047209913793]},"properties":{"ADDRESS":"300 LONGVIEW WAY","CITY":"OREGON CITY","STATE":"OR","OBJECTID":135,"DISTRICT":"CLACKAMAS CO. DISTRICT #1"}},{"type":"Feature","geometry":{"type":"Point","coordinates":[-122.77846209233523,45.304100958681829]},"properties":{"ADDRESS":"29875 SW KINSMAN RD","CITY":"WILSONVILLE","STATE":"OR","OBJECTID":132,"DISTRICT":"TUALATIN VALLEY FIRE & RESCUE"}},{"type":"Feature","geometry":{"type":"Point","coordinates":[-122.52646327343933,45.476498765971577]},"properties":{"ADDRESS":"13310 SE FOSTER RD","CITY":"PORTLAND","STATE":"OR","OBJECTID":97,"DISTRICT":"PORTLAND FIRE & RESCUE"}},{"type":"Feature","geometry":{"type":"Point","coordinates":[-122.57397226546139,45.554654481492321]},"properties":{"ADDRESS":"8645 NE SANDY BLVD","CITY":"PORTLAND","STATE":"OR","OBJECTID":105,"DISTRICT":"PORTLAND FIRE & RESCUE"}},{"type":"Feature","geometry":{"type":"Point","coordinates":[-123.10963650067369,45.518735996900105]},"properties":{"ADDRESS":"1919 ASH ST","CITY":"FOREST GROVE","STATE":"OR","OBJECTID":116,"DISTRICT":"FOREST GROVE FIRE & RESCUE"}},{"type":"Feature","geometry":{"type":"Point","coordinates":[-122.65507593325275,45.344560168538578]},"properties":{"ADDRESS":"1860 WILLAMETTE FALLS DR","CITY":"WEST LINN","STATE":"OR","OBJECTID":130,"DISTRICT":"TUALATIN VALLEY FIRE & RESCUE"}},{"type":"Feature","geometry":{"type":"Point","coordinates":[-122.78288459280206,45.495237575608073]},"properties":{"ADDRESS":"3425 SW 103RD AVE","CITY":"BEAVERTON","STATE":"OR","OBJECTID":92,"DISTRICT":"TUALATIN VALLEY FIRE & RESCUE"}},{"type":"Feature","geometry":{"type":"Point","coordinates":[-122.67071921178008,45.521823409245037]},"properties":{"ADDRESS":"55 SW ASH ST","CITY":"PORTLAND","STATE":"OR","OBJECTID":80,"DISTRICT":"PORTLAND FIRE & RESCUE"}},{"type":"Feature","geometry":{"type":"Point","coordinates":[-122.82045346389731,45.454515814672476]},"properties":{"ADDRESS":"13900 SW BROCKMAN ST","CITY":"BEAVERTON","STATE":"OR","OBJECTID":86,"DISTRICT":"TUALATIN VALLEY FIRE & RESCUE"}},{"type":"Feature","geometry":{"type":"Point","coordinates":[-122.5372265089829,45.5126125407876]},"properties":{"ADDRESS":"1500 SE 122ND AVE","CITY":"PORTLAND","STATE":"OR","OBJECTID":67,"DISTRICT":"PORTLAND FIRE & RESCUE"}},{"type":"Feature","geometry":{"type":"Point","coordinates":[-122.76379843291345,45.336089027644825]},"properties":{"ADDRESS":"8455 SW ELLIGSEN RD","CITY":"WILSONVILLE","STATE":"OR","OBJECTID":47,"DISTRICT":"TUALATIN VALLEY FIRE & RESCUE"}},{"type":"Feature","geometry":{"type":"Point","coordinates":[-123.05558316233085,45.521614410591674]},"properties":{"ADDRESS":"1311 N BARLOW ST","CITY":"CORNELIUS","STATE":"OR","OBJECTID":65,"DISTRICT":"CORNELIUS FIRE DEPT"}},{"type":"Feature","geometry":{"type":"Point","coordinates":[-122.76067951009475,45.544846714300256]},"properties":{"ADDRESS":"3130 NW SKYLINE BLVD","CITY":"PORTLAND","STATE":"OR","OBJECTID":74,"DISTRICT":"PORTLAND FIRE & RESCUE"}},{"type":"Feature","geometry":{"type":"Point","coordinates":[-122.46575610031228,45.534039588195242]},"properties":{"ADDRESS":"1520 NE 192ND AVE","CITY":"GRESHAM","STATE":"OR","OBJECTID":48,"DISTRICT":"GRESHAM FIRE & EMERG SRVCS"}},{"type":"Feature","geometry":{"type":"Point","coordinates":[-122.72365334989018,45.397282221407899]},"properties":{"ADDRESS":"4555 JEAN RD","CITY":"LAKE OSWEGO","STATE":"OR","OBJECTID":127,"DISTRICT":"LAKE OSWEGO F&R&LIFE SAFETY"}},{"type":"Feature","geometry":{"type":"Point","coordinates":[-122.45559234110051,45.417239995492238]},"properties":{"ADDRESS":"20100 SE HWY 212","CITY":"DAMASCUS","STATE":"OR","OBJECTID":173,"DISTRICT":"CLACKAMAS CO. DISTRICT #1"}},{"type":"Feature","geometry":{"type":"Point","coordinates":[-122.9306425512942,45.503061449142834]},"properties":{"ADDRESS":"5045 SE DRAKE ST","CITY":"HILLSBORO","STATE":"OR","OBJECTID":91,"DISTRICT":"HILLSBORO FIRE DEPT"}},{"type":"Feature","geometry":{"type":"Point","coordinates":[-122.70600760172874,45.548874921481683]},"properties":{"ADDRESS":"3660 NW FRONT AVE","CITY":"PORTLAND","STATE":"OR","OBJECTID":85,"DISTRICT":"PORTLAND FIRE & RESCUE"}},{"type":"Feature","geometry":{"type":"Point","coordinates":[-122.62835124129808,45.446210156224183]},"properties":{"ADDRESS":"3200 SE HARRISON ST","CITY":"MILWAUKIE","STATE":"OR","OBJECTID":140,"DISTRICT":"CLACKAMAS CO. DISTRICT #1"}},{"type":"Feature","geometry":{"type":"Point","coordinates":[-122.59447085275946,45.3805644476708]},"properties":{"ADDRESS":"555 PORTLAND AVE","CITY":"GLADSTONE","STATE":"OR","OBJECTID":161,"DISTRICT":"GLADSTONE FD"}},{"type":"Feature","geometry":{"type":"Point","coordinates":[-122.63302260653965,45.415305869428067]},"properties":{"ADDRESS":"2930 SE OAK GROVE BLVD","CITY":" ","STATE":"OR","OBJECTID":137,"DISTRICT":"CLACKAMAS CO. DISTRICT #1"}},{"type":"Feature","geometry":{"type":"Point","coordinates":[-122.8191436420596,45.486387866959305]},"properties":{"ADDRESS":"13810 SW FARMINGTON RD","CITY":"BEAVERTON","STATE":"OR","OBJECTID":94,"DISTRICT":"TUALATIN VALLEY FIRE & RESCUE"}},{"type":"Feature","geometry":{"type":"Point","coordinates":[-122.65257168087059,45.501898607116942]},"properties":{"ADDRESS":"2915 SE 13TH PL","CITY":"PORTLAND","STATE":"OR","OBJECTID":71,"DISTRICT":"PORTLAND FIRE & RESCUE"}},{"type":"Feature","geometry":{"type":"Point","coordinates":[-122.68062464965213,45.575068188819735]},"properties":{"ADDRESS":"7134 N MARYLAND AVE","CITY":"PORTLAND","STATE":"OR","OBJECTID":55,"DISTRICT":"PORTLAND FIRE & RESCUE"}},{"type":"Feature","geometry":{"type":"Point","coordinates":[-122.56698395825251,45.441953296959653]},"properties":{"ADDRESS":"9339 SE CAUSEY AVE","CITY":" ","STATE":"OR","OBJECTID":165,"DISTRICT":"CLACKAMAS CO. DISTRICT #1"}},{"type":"Feature","geometry":{"type":"Point","coordinates":[-122.90211109846983,45.528991051892547]},"properties":{"ADDRESS":"1225 NE CHERRY LN","CITY":"HILLSBORO","STATE":"OR","OBJECTID":108,"DISTRICT":"HILLSBORO FIRE DEPT"}},{"type":"Feature","geometry":{"type":"Point","coordinates":[-122.79975583688174,45.396449293744901]},"properties":{"ADDRESS":"17135 SW PACIFIC HWY","CITY":" ","STATE":"OR","OBJECTID":106,"DISTRICT":"TUALATIN VALLEY FIRE & RESCUE"}},{"type":"Feature","geometry":{"type":"Point","coordinates":[-122.89135800670246,45.493142321857938]},"properties":{"ADDRESS":"3608 SW 209TH AVE","CITY":"ALOHA","STATE":"OR","OBJECTID":99,"DISTRICT":"TUALATIN VALLEY FIRE & RESCUE"}},{"type":"Feature","geometry":{"type":"Point","coordinates":[-122.74785760810951,45.391391600327559]},"properties":{"ADDRESS":"7080 SW MCEWAN RD","CITY":"TUALATIN","STATE":"OR","OBJECTID":122,"DISTRICT":"TUALATIN VALLEY FIRE & RESCUE"}},{"type":"Feature","geometry":{"type":"Point","coordinates":[-122.3994679745994,45.501743960555601]},"properties":{"ADDRESS":"500 NE KANE DR","CITY":"GRESHAM","STATE":"OR","OBJECTID":63,"DISTRICT":"GRESHAM FIRE & EMERG SRVCS"}},{"type":"Feature","geometry":{"type":"Point","coordinates":[-122.52592773110457,45.537445534731724]},"properties":{"ADDRESS":"13313 NE SAN RAFAEL ST","CITY":"PORTLAND","STATE":"OR","OBJECTID":112,"DISTRICT":"PORTLAND FIRE & RESCUE"}},{"type":"Feature","geometry":{"type":"Point","coordinates":[-122.76574869425987,45.529146845717378]},"properties":{"ADDRESS":"8585 NW JOHNSON ST","CITY":"PORTLAND","STATE":"OR","OBJECTID":68,"DISTRICT":"TUALATIN VALLEY FIRE & RESCUE"}},{"type":"Feature","geometry":{"type":"Point","coordinates":[-122.73593929811231,45.510843029303601]},"properties":{"ADDRESS":"1715 SW SKYLINE BLVD","CITY":"PORTLAND","STATE":"OR","OBJECTID":81,"DISTRICT":"PORTLAND FIRE & RESCUE"}},{"type":"Feature","geometry":{"type":"Point","coordinates":[-122.95884453261507,45.545787318562162]},"properties":{"ADDRESS":"2850 NE 25TH AVE","CITY":"HILLSBORO","STATE":"OR","OBJECTID":56,"DISTRICT":"HILLSBORO FIRE DEPT"}},{"type":"Feature","geometry":{"type":"Point","coordinates":[-122.68145814879354,45.555772608800872]},"properties":{"ADDRESS":"4515 N MARYLAND AVE","CITY":"PORTLAND","STATE":"OR","OBJECTID":96,"DISTRICT":"PORTLAND FIRE & RESCUE"}},{"type":"Feature","geometry":{"type":"Point","coordinates":[-122.77087894859297,45.379846849038287]},"properties":{"ADDRESS":"19365 SW 90TH CT","CITY":"TUALATIN","STATE":"OR","OBJECTID":83,"DISTRICT":"TUALATIN VALLEY FIRE & RESCUE"}},{"type":"Feature","geometry":{"type":"Point","coordinates":[-122.91078925440746,45.480944109183646]},"properties":{"ADDRESS":"6830 SE BUTTERNUT CREEK PKWY","CITY":"HILLSBORO","STATE":"OR","OBJECTID":174,"DISTRICT":"HILLSBORO FIRE DEPT"}},{"type":"Feature","geometry":{"type":"Point","coordinates":[-122.98947404390465,45.520737741077276]},"properties":{"ADDRESS":"240 S 1ST AVE","CITY":"HILLSBORO","STATE":"OR","OBJECTID":114,"DISTRICT":"HILLSBORO FIRE DEPT"}},{"type":"Feature","geometry":{"type":"Point","coordinates":[-122.81864268845659,45.513956671502861]},"properties":{"ADDRESS":"13730 SW BUTNER RD","CITY":"BEAVERTON","STATE":"OR","OBJECTID":51,"DISTRICT":"TUALATIN VALLEY FIRE & RESCUE"}},{"type":"Feature","geometry":{"type":"Point","coordinates":[-122.9100413817806,45.551198110532084]},"properties":{"ADDRESS":"4455 NE CENTURY BLVD","CITY":"HILLSBORO","STATE":"OR","OBJECTID":109,"DISTRICT":"HILLSBORO FIRE DEPT"}},{"type":"Feature","geometry":{"type":"Point","coordinates":[-122.65085731891438,45.376922428304312]},"properties":{"ADDRESS":"20790 HIDDEN SPRINGS RD","CITY":"WEST LINN","STATE":"OR","OBJECTID":133,"DISTRICT":"TUALATIN VALLEY FIRE & RESCUE"}},{"type":"Feature","geometry":{"type":"Point","coordinates":[-122.36829393782229,45.432868077648948]},"properties":{"ADDRESS":"28655 SE HWY 212","CITY":"BORING","STATE":"OR","OBJECTID":157,"DISTRICT":"CLACKAMAS CO. DISTRICT #1"}},{"type":"Feature","geometry":{"type":"Point","coordinates":[-122.64207896668663,45.474316695682397]},"properties":{"ADDRESS":"2235 SE BYBEE BLVD","CITY":"PORTLAND","STATE":"OR","OBJECTID":88,"DISTRICT":"PORTLAND FIRE & RESCUE"}},{"type":"Feature","geometry":{"type":"Point","coordinates":[-122.67584098781353,45.609720733840845]},"properties":{"ADDRESS":"848 N TOMAHAWK ISLAND DR","CITY":"PORTLAND","STATE":"OR","OBJECTID":90,"DISTRICT":"PORTLAND FIRE & RESCUE"}},{"type":"Feature","geometry":{"type":"Point","coordinates":[-122.65589145081712,45.534130710160412]},"properties":{"ADDRESS":"926 NE WEIDLER ST","CITY":"PORTLAND","STATE":"OR","OBJECTID":87,"DISTRICT":"PORTLAND FIRE & RESCUE"}},{"type":"Feature","geometry":{"type":"Point","coordinates":[-122.33609719155207,45.519145181488092]},"properties":{"ADDRESS":"31727 E HISTORIC COLUMBIA RIVER HWY","CITY":"SPRINGDALE","STATE":"OR","OBJECTID":102,"DISTRICT":"MULTNOMAH CO RFPD 14"}},{"type":"Feature","geometry":{"type":"Point","coordinates":[-122.52988228476687,45.40572359168916]},"properties":{"ADDRESS":"16100 SE 130TH AVE","CITY":"CLACKAMAS","STATE":"OR","OBJECTID":136,"DISTRICT":"CLACKAMAS CO. DISTRICT #1"}},{"type":"Feature","geometry":{"type":"Point","coordinates":[-122.58193503185282,45.440634367746625]},"properties":{"ADDRESS":"11300 SE FULLER RD","CITY":" ","STATE":"OR","OBJECTID":141,"DISTRICT":"CLACKAMAS CO. DISTRICT #1"}},{"type":"Feature","geometry":{"type":"Point","coordinates":[-122.59538954183422,45.425549535959732]},"properties":{"ADDRESS":"6600 SE LAKE RD","CITY":" ","STATE":"OR","OBJECTID":139,"DISTRICT":"CLACKAMAS CO. DISTRICT #1"}},{"type":"Feature","geometry":{"type":"Point","coordinates":[-122.58186240036717,45.326878278317189]},"properties":{"ADDRESS":"19340 S MOLALLA AVE","CITY":"OREGON CITY","STATE":"OR","OBJECTID":144,"DISTRICT":"CLACKAMAS CO. DISTRICT #1"}},{"type":"Feature","geometry":{"type":"Point","coordinates":[-122.62242809347102,45.371281936738363]},"properties":{"ADDRESS":"6050 FAILING ST","CITY":"WEST LINN","STATE":"OR","OBJECTID":128,"DISTRICT":"TUALATIN VALLEY FIRE & RESCUE"}},{"type":"Feature","geometry":{"type":"Point","coordinates":[-122.35172033793555,45.470056172177941]},"properties":{"ADDRESS":"30300 SE DODGE PARK BLVD","CITY":"GRESHAM","STATE":"OR","OBJECTID":60,"DISTRICT":"GRESHAM FIRE & EMERG SRVCS"}},{"type":"Feature","geometry":{"type":"Point","coordinates":[-122.60882246350269,45.596887040347326]},"properties":{"ADDRESS":"5250 NE MARINE DR","CITY":"PORTLAND","STATE":"OR","OBJECTID":78,"DISTRICT":"MULT CO FD #8 PDX (PORT OF PORTLAND)"}},{"type":"Feature","geometry":{"type":"Point","coordinates":[-122.76824123620401,45.427603435934792]},"properties":{"ADDRESS":"8935 SW BURNHAM ST","CITY":"TIGARD","STATE":"OR","OBJECTID":57,"DISTRICT":"TUALATIN VALLEY FIRE & RESCUE"}},{"type":"Feature","geometry":{"type":"Point","coordinates":[-122.81663300984232,45.547373095160054]},"properties":{"ADDRESS":"13545 NW EVERGREEN ST","CITY":"PORTLAND","STATE":"OR","OBJECTID":117,"DISTRICT":"TUALATIN VALLEY FIRE & RESCUE"}},{"type":"Feature","geometry":{"type":"Point","coordinates":[-122.45957589148186,45.419736383869726]},"properties":{"ADDRESS":"19750 SE DAMASCUS LN","CITY":"DAMASCUS","STATE":"OR","OBJECTID":170,"DISTRICT":"CLACKAMAS CO. DISTRICT #1"}},{"type":"Feature","geometry":{"type":"Point","coordinates":[-122.69328208178695,45.480404866968456]},"properties":{"ADDRESS":"1505 SW DEWITT ST","CITY":"PORTLAND","STATE":"OR","OBJECTID":100,"DISTRICT":"PORTLAND FIRE & RESCUE"}}]}