{"type":"FeatureCollection","features":[{"type":"Feature","geometry":{"type":"Point","coordinates":[-122.55836234048223,45.512698460062516]},"properties":{"NAME":"OHSU Adventist Medical Center","ADDRESS":"10123 SE Market St","CITY":"Portland","OBJECTID":7,"ZIPCODE":"97216"}},{"type":"Feature","geometry":{"type":"Point","coordinates":[-122.5604387666171,45.431350153407806]},"properties":{"NAME":"Kaiser Sunnyside","ADDRESS":"10180 SE Sunnyside Rd","CITY":"Clackamas","OBJECTID":19,"ZIPCODE":"97105"}},{"type":"Feature","geometry":{"type":"Point","coordinates":[-122.58688655647869,45.356286997988185]},"properties":{"NAME":"Providence Willamette Falls","ADDRESS":"1500 Division St","CITY":"Oregon City","OBJECTID":13,"ZIPCODE":"97045"}},{"type":"Feature","geometry":{"type":"Point","coordinates":[-122.40694935269467,45.516809797326474]},"properties":{"NAME":"Legacy Mount Hood","ADDRESS":"24800 SE Stark St","CITY":"Gresham","OBJECTID":6,"ZIPCODE":"97030"}},{"type":"Feature","geometry":{"type":"Point","coordinates":[-122.66951229824639,45.54363596338289]},"properties":{"NAME":"Legacy Emanuel","ADDRESS":"2801 N Gantenbein Ave","CITY":"Portland","OBJECTID":1,"ZIPCODE":"97227"}},{"type":"Feature","geometry":{"type":"Point","coordinates":[-122.62758248463751,45.449651255648803]},"properties":{"NAME":"Providence Milwaukie","ADDRESS":"10150 SE 32nd Ave","CITY":"Milwaukie","OBJECTID":11,"ZIPCODE":"97222"}},{"type":"Feature","geometry":{"type":"Point","coordinates":[-122.74073345945997,45.378554542289365]},"properties":{"NAME":"Legacy Meridian Park","ADDRESS":"19300 SW 65th Ave","CITY":"Tualatin","OBJECTID":12,"ZIPCODE":"97062"}},{"type":"Feature","geometry":{"type":"Point","coordinates":[-122.68616979628905,45.497827151428226]},"properties":{"NAME":"OHSU Doernbecher Children's Hospital","ADDRESS":"700 SW Campus Dr","CITY":"Portland","OBJECTID":9,"ZIPCODE":"97239"}},{"type":"Feature","geometry":{"type":"Point","coordinates":[-122.69754415212718,45.530300436721802]},"properties":{"NAME":"Legacy Good Samaritan","ADDRESS":"1015 NW 22nd Ave","CITY":"Portland","OBJECTID":2,"ZIPCODE":"97210"}},{"type":"Feature","geometry":{"type":"Point","coordinates":[-122.61382478067134,45.527346957763307]},"properties":{"NAME":"Providence Portland","ADDRESS":"4805 NE Glisan St","CITY":"Portland","OBJECTID":3,"ZIPCODE":"97213"}},{"type":"Feature","geometry":{"type":"Point","coordinates":[-122.6697457317612,45.544560351085735]},"properties":{"NAME":"Randall Children's Hospital at Legacy Emanuel","ADDRESS":"2801 N Gantenbein Ave","CITY":"Portland","OBJECTID":17,"ZIPCODE":"97227"}},{"type":"Feature","geometry":{"type":"Point","coordinates":[-122.68437621280628,45.500668420440867]},"properties":{"NAME":"Shriners Hospitals for Children","ADDRESS":"3101 SW Sam Jackson Park Rd","CITY":"Portland","OBJECTID":8,"ZIPCODE":"97239"}},{"type":"Feature","geometry":{"type":"Point","coordinates":[-122.97824797836034,45.519595878290097]},"properties":{"NAME":"OHSU Hillsboro Medical Center","ADDRESS":"335 SE 8th Ave","CITY":"Hillsboro","OBJECTID":4,"ZIPCODE":"97123"}},{"type":"Feature","geometry":{"type":"Point","coordinates":[-122.87709606219761,45.539284271519151]},"properties":{"NAME":"Kaiser Permanente Westside Medical Center","ADDRESS":"2875 NE Stucki Ave","CITY":"Hillsboro","OBJECTID":18,"ZIPCODE":"97124"}},{"type":"Feature","geometry":{"type":"Point","coordinates":[-122.68516946742298,45.499222438250015]},"properties":{"NAME":"Oregon Health & Science University","ADDRESS":"3181 SW Sam Jackson Park Rd","CITY":"Portland","OBJECTID":16,"ZIPCODE":"97239"}},{"type":"Feature","geometry":{"type":"Point","coordinates":[-122.77177803193666,45.510423274493995]},"properties":{"NAME":"Providence St. Vincent","ADDRESS":"9205 SW Barnes Rd","CITY":"Portland","OBJECTID":5,"ZIPCODE":"97225"}},{"type":"Feature","geometry":{"type":"Point","coordinates":[-122.68385528156965,45.497048143569046]},"properties":{"NAME":"Portland VA Medical Center","ADDRESS":"3710 SW US Veterans Hospital Rd","CITY":"Portland","OBJECTID":10,"ZIPCODE":"97239"}}]}