{"type":"FeatureCollection","features":[{"type":"Feature","id":1,"geometry":{"type":"Point","coordinates":[-122.84038390516184,45.35666970956575]},"properties":{"FID":1,"NAME":"Sherwood Public Library","ADDRESS":"22560 SW Pine St","CITY":"Sherwood","STATE":"OR","ZIPCODE":"97140"}},{"type":"Feature","id":2,"geometry":{"type":"Point","coordinates":[-123.10999428759263,45.51950526504408]},"properties":{"FID":2,"NAME":"Forest Grove City Library","ADDRESS":"2114 Pacific Ave","CITY":"Forest Grove","STATE":"OR","ZIPCODE":"97116"}},{"type":"Feature","id":3,"geometry":{"type":"Point","coordinates":[-122.9750687551453,45.51431630143273]},"properties":{"FID":3,"NAME":"Hillsboro Shute Park Branch","ADDRESS":"775 SE 10th Ave","CITY":"Hillsboro","STATE":"OR","ZIPCODE":"97123"}},{"type":"Feature","id":4,"geometry":{"type":"Point","coordinates":[-122.7572730417883,45.49324762571392]},"properties":{"FID":4,"NAME":"West Slope Community Library","ADDRESS":"3678 SW 78th Ave","CITY":"Portland","STATE":"OR","ZIPCODE":"97225"}},{"type":"Feature","id":5,"geometry":{"type":"Point","coordinates":[-122.75117426843796,45.590083622748416]},"properties":{"FID":5,"NAME":"St. Johns Library","ADDRESS":"7510 N Charleston Ave","CITY":"Portland","STATE":"OR","ZIPCODE":"97203"}},{"type":"Feature","id":6,"geometry":{"type":"Point","coordinates":[-122.67147912645623,45.56252629737563]},"properties":{"FID":6,"NAME":"North Portland Library","ADDRESS":"512 N Killingsworth St","CITY":"Portland","STATE":"OR","ZIPCODE":"97217"}},{"type":"Feature","id":7,"geometry":{"type":"Point","coordinates":[-122.65282883972627,45.4677009735579]},"properties":{"FID":7,"NAME":"Sellwood-Moreland Library","ADDRESS":"7860 SE 13th Ave","CITY":"Portland","STATE":"OR","ZIPCODE":"97202"}},{"type":"Feature","id":8,"geometry":{"type":"Point","coordinates":[-122.58142588861735,45.55157395976463]},"properties":{"FID":8,"NAME":"Gregory Heights Library","ADDRESS":"7921 NE Sandy Blvd","CITY":"Portland","STATE":"OR","ZIPCODE":"97213"}},{"type":"Feature","id":9,"geometry":{"type":"Point","coordinates":[-122.47903109089204,45.51949443673557]},"properties":{"FID":9,"NAME":"Rockwood Library","ADDRESS":"17917 SE Stark St","CITY":"Portland","STATE":"OR","ZIPCODE":"97233"}},{"type":"Feature","id":10,"geometry":{"type":"Point","coordinates":[-122.53823951426864,45.51677071537408]},"properties":{"FID":10,"NAME":"Midland Library","ADDRESS":"805 SE 122nd Ave","CITY":"Portland","STATE":"OR","ZIPCODE":"97233"}},{"type":"Feature","id":11,"geometry":{"type":"Point","coordinates":[-122.621578019349,45.53763597130823]},"properties":{"FID":11,"NAME":"Hollywood Library","ADDRESS":"4040 NE Tillamook St","CITY":"Portland","STATE":"OR","ZIPCODE":"97212"}},{"type":"Feature","id":12,"geometry":{"type":"Point","coordinates":[-122.6226969947123,45.515246775823975]},"properties":{"FID":12,"NAME":"Belmont Library","ADDRESS":"1038 SE Cesar E Chavez Blvd","CITY":"Portland","STATE":"OR","ZIPCODE":"97214"}},{"type":"Feature","id":17,"geometry":{"type":"Point","coordinates":[-122.68297941359981,45.51922869469134]},"properties":{"FID":17,"NAME":"Central Library","ADDRESS":"801 SW 10th Ave","CITY":"Portland","STATE":"OR","ZIPCODE":"97205"}},{"type":"Feature","id":18,"geometry":{"type":"Point","coordinates":[-122.69406525775405,45.479809966140856]},"properties":{"FID":18,"NAME":"Hillsdale Library","ADDRESS":"1525 SW Sunset Blvd","CITY":"Portland","STATE":"OR","ZIPCODE":"97239"}},{"type":"Feature","id":19,"geometry":{"type":"Point","coordinates":[-122.61217601739632,45.47899982777548]},"properties":{"FID":19,"NAME":"Woodstock Library","ADDRESS":"6008 SE 49th Ave","CITY":"Portland","STATE":"OR","ZIPCODE":"97206"}},{"type":"Feature","id":20,"geometry":{"type":"Point","coordinates":[-122.58223684841188,45.49042199348592]},"properties":{"FID":20,"NAME":"Holgate Library","ADDRESS":"7905 SE Holgate Blvd","CITY":"Portland","STATE":"OR","ZIPCODE":"97206"}},{"type":"Feature","id":21,"geometry":{"type":"Point","coordinates":[-122.43283634193348,45.500219079444214]},"properties":{"FID":21,"NAME":"Gresham Library","ADDRESS":"385 NW Miller Ave","CITY":"Gresham","STATE":"OR","ZIPCODE":"97030"}},{"type":"Feature","id":22,"geometry":{"type":"Point","coordinates":[-122.75382251841985,45.46618325850945]},"properties":{"FID":22,"NAME":"Garden Home Community Library","ADDRESS":"7475 SW Oleson Rd","CITY":"Portland","STATE":"OR","ZIPCODE":"97223"}},{"type":"Feature","id":23,"geometry":{"type":"Point","coordinates":[-122.75860291860927,45.38430679883526]},"properties":{"FID":23,"NAME":"Tualatin Public Library","ADDRESS":"18878 SW Martinazzi Ave","CITY":"Tualatin","STATE":"OR","ZIPCODE":"97062"}},{"type":"Feature","id":24,"geometry":{"type":"Point","coordinates":[-122.72532978510104,45.44795909960993]},"properties":{"FID":24,"NAME":"Capitol Hill Library","ADDRESS":"10723 SW Capitol Hwy","CITY":"Portland","STATE":"OR","ZIPCODE":"97219"}},{"type":"Feature","id":25,"geometry":{"type":"Point","coordinates":[-122.64048652147811,45.446143510713824]},"properties":{"FID":25,"NAME":"Ledding Library of Milwaukie","ADDRESS":"10660 SE 21st Ave","CITY":"Milwaukie","STATE":"OR","ZIPCODE":"97222"}},{"type":"Feature","id":26,"geometry":{"type":"Point","coordinates":[-122.66738187599647,45.42413342960509]},"properties":{"FID":26,"NAME":"Lake Oswego Public Library","ADDRESS":"706 4th St","CITY":"Lake Oswego","STATE":"OR","ZIPCODE":"97034"}},{"type":"Feature","id":27,"geometry":{"type":"Point","coordinates":[-122.6246544799803,45.40580672687988]},"properties":{"FID":27,"NAME":"Oak Lodge Library","ADDRESS":"16201 SE Mcloughlin Blvd","CITY":"Oak Grove","STATE":"OR","ZIPCODE":"97267"}},{"type":"Feature","id":28,"geometry":{"type":"Point","coordinates":[-122.7610124929228,45.302654956092915]},"properties":{"FID":28,"NAME":"Wilsonville Public Library","ADDRESS":"8200 SW Wilsonville Rd","CITY":"Wilsonville","STATE":"OR","ZIPCODE":"97070"}},{"type":"Feature","id":30,"geometry":{"type":"Point","coordinates":[-122.5936735825117,45.38035640256934]},"properties":{"FID":30,"NAME":"Gladstone Public Library","ADDRESS":"135 E Dartmouth St","CITY":"Gladstone","STATE":"OR","ZIPCODE":"97027"}},{"type":"Feature","id":31,"geometry":{"type":"Point","coordinates":[-122.60422473903459,45.35533904912559]},"properties":{"FID":31,"NAME":"Oregon City Public Library","ADDRESS":"606 John Adams St","CITY":"Oregon City","STATE":"OR","ZIPCODE":"97045"}},{"type":"Feature","id":34,"geometry":{"type":"Point","coordinates":[-122.61414146433268,45.3676133242886]},"properties":{"FID":34,"NAME":"West Linn Public Library","ADDRESS":"1595 Burns St","CITY":"West Linn","STATE":"OR","ZIPCODE":"97068"}},{"type":"Feature","id":35,"geometry":{"type":"Point","coordinates":[-122.66309783171845,45.54161430394397]},"properties":{"FID":35,"NAME":"Albina Library","ADDRESS":"216 NE Knott St","CITY":"Portland","STATE":"OR","ZIPCODE":"97212"}},{"type":"Feature","id":36,"geometry":{"type":"Point","coordinates":[-122.43914625836048,45.532453807877275]},"properties":{"FID":36,"NAME":"Fairview-Columbia Library","ADDRESS":"1520 NE Village St","CITY":"Fairview","STATE":"OR","ZIPCODE":"97024"}},{"type":"Feature","id":37,"geometry":{"type":"Point","coordinates":[-122.69907285605221,45.53534251075372]},"properties":{"FID":37,"NAME":"Northwest Library","ADDRESS":"2300 NW Thurman St","CITY":"Portland","STATE":"OR","ZIPCODE":"97210"}},{"type":"Feature","id":38,"geometry":{"type":"Point","coordinates":[-122.8040372561919,45.48410987730403]},"properties":{"FID":38,"NAME":"Beaverton City Library","ADDRESS":"12375 SW 5th St","CITY":"Beaverton","STATE":"OR","ZIPCODE":"97005"}},{"type":"Feature","id":41,"geometry":{"type":"Point","coordinates":[-122.80573467375865,45.52603354325427]},"properties":{"FID":41,"NAME":"Cedar Mill Community Library","ADDRESS":"12505 NW Cornell Rd","CITY":"Portland","STATE":"OR","ZIPCODE":"97229"}},{"type":"Feature","id":42,"geometry":{"type":"Point","coordinates":[-122.7654642296426,45.422362121569385]},"properties":{"FID":42,"NAME":"Tigard Public Library","ADDRESS":"13500 SW Hall Blvd","CITY":"Tigard","STATE":"OR","ZIPCODE":"97223"}},{"type":"Feature","id":51,"geometry":{"type":"Point","coordinates":[-122.6865672387843,45.5826799845784]},"properties":{"FID":51,"NAME":"Kenton Library","ADDRESS":"8226 N Denver Ave","CITY":"Portland","STATE":"OR","ZIPCODE":"97217"}},{"type":"Feature","id":52,"geometry":{"type":"Point","coordinates":[-122.83501745863147,45.55444423328567]},"properties":{"FID":52,"NAME":"Cedar Mill Community Library at Bethany","ADDRESS":"15325 NW Central Drive, Suite J-8","CITY":"Portland","STATE":"OR","ZIPCODE":"97229"}},{"type":"Feature","id":53,"geometry":{"type":"Point","coordinates":[-122.93617118162616,45.542843654442095]},"properties":{"FID":53,"NAME":"Hillsboro Main Library","ADDRESS":"2850 NE Brookwood Pkwy","CITY":"Hillsboro","STATE":"OR","ZIPCODE":"97124"}},{"type":"Feature","id":55,"geometry":{"type":"Point","coordinates":[-122.40957370894026,45.5295025244207]},"properties":{"FID":55,"NAME":"Troutdale Library","ADDRESS":"2451 SW Cherry Park Rd","CITY":"Troutdale","STATE":"OR","ZIPCODE":"97060"}},{"type":"Feature","id":56,"geometry":{"type":"Point","coordinates":[-122.51279254733146,45.422709213407195]},"properties":{"FID":56,"NAME":"Sunnyside Library","ADDRESS":"13793 SE Sieben Park Way","CITY":"Clackamas","STATE":"OR","ZIPCODE":"97015"}},{"type":"Feature","id":57,"geometry":{"type":"Point","coordinates":[-122.8574166907652,45.48016854229137]},"properties":{"FID":57,"NAME":"Aloha Community Library","ADDRESS":"17683 SW Farmington Rd Suite E","CITY":"Aloha","STATE":"OR","ZIPCODE":"97007"}},{"type":"Feature","id":58,"geometry":{"type":"Point","coordinates":[-122.8275395051471,45.4386530521365]},"properties":{"FID":58,"NAME":"Beaverton City Library at Murray Scholls","ADDRESS":"11200 SW Murray Scholls Place Suite 102","CITY":"Beaverton","STATE":"OR","ZIPCODE":"97007"}},{"type":"Feature","id":59,"geometry":{"type":"Point","coordinates":[-123.05489368113936,45.52107317932595]},"properties":{"FID":59,"NAME":"Cornelius Public Library","ADDRESS":"1370 N Adair Street","CITY":"Cornelius","STATE":"OR","ZIPCODE":"97113"}}]}