{"type":"FeatureCollection","features":[{"type":"Feature","id":7,"geometry":{"type":"Point","coordinates":[-122.67871712924857,45.520873121644286]},"properties":{"OBJECTID":7,"GlobalID":"{A891248F-8ED1-48D9-B7D1-967713CA6181}","Observation_Type":"Remember","Notes":"Kimpton Hotel. Room was not cleaned and smelled. New room was provided. Bartender was from Los Angeles and worked at Oldfields, where Lindsay and Jason had their first date.","Photos":["img_sept_observation/{A891248F-8ED1-48D9-B7D1-967713CA6181}/088310f7323649dfa4629f9eeebfcc9c.jpg","img_sept_observation/{A891248F-8ED1-48D9-B7D1-967713CA6181}/2620f16284b3481a8e6d408134a1b70c.jpg","img_sept_observation/{A891248F-8ED1-48D9-B7D1-967713CA6181}/6650c4dad70e4d888501597def89c68f.jpg","img_sept_observation/{A891248F-8ED1-48D9-B7D1-967713CA6181}/f0e81acdd3314b2b8dfeabb88b21faee.jpg"]}},{"type":"Feature","id":8,"geometry":{"type":"Point","coordinates":[-122.6985396273958,45.534745324773674]},"properties":{"OBJECTID":8,"GlobalID":"{D9030BF9-7EEC-4FF3-A3D9-77A97E2630AD}","Observation_Type":"Remember","Notes":"Kirari West. Egg, bacon, French toast w/Japanese green tea.","Photos":["img_sept_observation/{D9030BF9-7EEC-4FF3-A3D9-77A97E2630AD}/01ca2acb00e54c1eba242e19be79f436.jpg","img_sept_observation/{D9030BF9-7EEC-4FF3-A3D9-77A97E2630AD}/14f9ba06880e435db2e262d8f46eab2a.jpg"]}},{"type":"Feature","id":9,"geometry":{"type":"Point","coordinates":[-122.68511687645298,45.46755429957633]},"properties":{"OBJECTID":9,"GlobalID":"{62FF36A9-6E46-46F6-B01E-06A713D82CEF}","Observation_Type":"Yes","Notes":"Great vibes green everywhere right outside of city","Photos":["img_sept_observation/{62FF36A9-6E46-46F6-B01E-06A713D82CEF}/967a6458fe074d2d93e2061e8335395b.jpg"]}},{"type":"Feature","id":10,"geometry":{"type":"Point","coordinates":[-122.67402836094502,45.44368590092935]},"properties":{"OBJECTID":10,"GlobalID":"{E8CD1FD9-5477-4D4A-89C3-0D51E1EAF843}","Observation_Type":"Yes","Notes":"\n","Photos":["img_sept_observation/{E8CD1FD9-5477-4D4A-89C3-0D51E1EAF843}/644ad5135e1e4938b654db76b61713aa.jpg"]}},{"type":"Feature","id":11,"geometry":{"type":"Point","coordinates":[-122.71109196382892,45.40292071909245]},"properties":{"OBJECTID":11,"GlobalID":"{0CD29AC9-1817-4479-98BD-9637AB79D1E6}","Observation_Type":"Yes","Notes":"\n","Photos":["img_sept_observation/{0CD29AC9-1817-4479-98BD-9637AB79D1E6}/07ff808e1e6542f588487c3cf5b4e978.jpg"]}},{"type":"Feature","id":12,"geometry":{"type":"Point","coordinates":[-122.7148144458224,45.402810113014006]},"properties":{"OBJECTID":12,"GlobalID":"{8847D7E7-42B3-4B46-9494-EB707504DA20}","Observation_Type":"Yes","Notes":"\n","Photos":["img_sept_observation/{8847D7E7-42B3-4B46-9494-EB707504DA20}/8e93e2cffe184f61b495cc9f39629e90.jpg"]}},{"type":"Feature","id":13,"geometry":{"type":"Point","coordinates":[-122.6718722254984,45.42017328265517]},"properties":{"OBJECTID":13,"GlobalID":"{EB2D9C88-EA08-451A-99A8-35E483FC2C0F}","Observation_Type":"Remember","Notes":"Evergreen Neighborhood ","Photos":["img_sept_observation/{EB2D9C88-EA08-451A-99A8-35E483FC2C0F}/90f8896442284eb98b18592d23782f05.jpg"]}},{"type":"Feature","id":14,"geometry":{"type":"Point","coordinates":[-122.66585967284269,45.41948721312816]},"properties":{"OBJECTID":14,"GlobalID":"{25BE697B-F9CC-4E47-9671-2E6927CF6DE1}","Observation_Type":"Remember","Notes":"Cute downtown! ","Photos":["img_sept_observation/{25BE697B-F9CC-4E47-9671-2E6927CF6DE1}/4f56570cc0dd415383efec4a50d9f36a.jpg","img_sept_observation/{25BE697B-F9CC-4E47-9671-2E6927CF6DE1}/87bd189de81f4133be69a58d8b23e270.jpg"]}},{"type":"Feature","id":15,"geometry":{"type":"Point","coordinates":[-122.65022444681358,45.37643878994053]},"properties":{"OBJECTID":15,"GlobalID":"{F095CF01-86BD-4446-835D-ABEB859EB8A9}","Observation_Type":"Yes","Notes":"Cool street - wooded, nature","Photos":["img_sept_observation/{F095CF01-86BD-4446-835D-ABEB859EB8A9}/2c45f818e2e245ad9978677fd9a92500.jpg"]}},{"type":"Feature","id":16,"geometry":{"type":"Point","coordinates":[-122.64326226710472,45.37541156630774]},"properties":{"OBJECTID":16,"GlobalID":"{F415AFCB-C663-4F8D-8AA7-5077589106F2}","Observation_Type":"Yes","Notes":"100% acceptable neighborhood","Photos":["img_sept_observation/{F415AFCB-C663-4F8D-8AA7-5077589106F2}/d0964b83e2dc4c4a8965cc2a7d3d40fc.jpg"]}},{"type":"Feature","id":17,"geometry":{"type":"Point","coordinates":[-122.6445719065844,45.35557092002688]},"properties":{"OBJECTID":17,"GlobalID":"{F8AE6A21-BD09-478E-86E0-E3A494F337F9}","Observation_Type":"Yes","Notes":"100% acceptable area","Photos":["img_sept_observation/{F8AE6A21-BD09-478E-86E0-E3A494F337F9}/94b97fbb900f46ca92d8a1a4a5fa73fa.jpg"]}},{"type":"Feature","id":18,"geometry":{"type":"Point","coordinates":[-122.75892761742429,45.381918011001105]},"properties":{"OBJECTID":18,"GlobalID":"{E84D674E-4CE1-41FD-A732-D6784C21BDB7}","Observation_Type":"Yes","Notes":"Nice shopping area","Photos":["img_sept_observation/{E84D674E-4CE1-41FD-A732-D6784C21BDB7}/0e3b99324f694079b24d844ce3fc3034.jpg"]}},{"type":"Feature","id":19,"geometry":{"type":"Point","coordinates":[-122.78080838046625,45.365977403890014]},"properties":{"OBJECTID":19,"GlobalID":"{644149A8-5FC5-4381-935C-A39E23845D12}","Observation_Type":"Yes","Notes":"Cute neighbordhood","Photos":["img_sept_observation/{644149A8-5FC5-4381-935C-A39E23845D12}/84e051d7ff494ce7869309e9614deaab.jpg"]}},{"type":"Feature","id":20,"geometry":{"type":"Point","coordinates":[-122.78449049756074,45.36589724028207]},"properties":{"OBJECTID":20,"GlobalID":"{4F37F1D0-8F11-4628-A210-696A76C790C6}","Observation_Type":"Yes","Notes":"Good street","Photos":["img_sept_observation/{4F37F1D0-8F11-4628-A210-696A76C790C6}/56e04d326af14968a2d2dc47803c3a6b.jpg"]}},{"type":"Feature","id":21,"geometry":{"type":"Point","coordinates":[-122.78600779609307,45.358780052238295]},"properties":{"OBJECTID":21,"GlobalID":"{C6EBAAE3-A609-464D-BA8B-A1B7A8CD80F8}","Observation_Type":"Yes","Notes":"Definitely acceptable neighborhood ","Photos":["img_sept_observation/{C6EBAAE3-A609-464D-BA8B-A1B7A8CD80F8}/02e57d7ea10447a4bd346bc2e6843e5e.jpg"]}},{"type":"Feature","id":22,"geometry":{"type":"Point","coordinates":[-122.7855441189811,45.359390321318735]},"properties":{"OBJECTID":22,"GlobalID":"{ADCD3E77-19E1-4C1F-AC6B-D9349EB56BC5}","Observation_Type":"Yes","Notes":"Great neighbordhood","Photos":["img_sept_observation/{ADCD3E77-19E1-4C1F-AC6B-D9349EB56BC5}/778acd091f674fb3aead7a4a649f1aa6.jpg","img_sept_observation/{ADCD3E77-19E1-4C1F-AC6B-D9349EB56BC5}/8c9e1e208a10440abddff3090fd01c8a.jpg"]}},{"type":"Feature","id":23,"geometry":{"type":"Point","coordinates":[-122.78323015403062,45.36137924804435]},"properties":{"OBJECTID":23,"GlobalID":"{91BB9ACC-4F76-4876-982A-94F1330AC269}","Observation_Type":"Yes","Notes":"Great park for kids ","Photos":["img_sept_observation/{91BB9ACC-4F76-4876-982A-94F1330AC269}/debff309569d484281c523d21a4002f2.jpg"]}},{"type":"Feature","id":24,"geometry":{"type":"Point","coordinates":[-122.86004414176145,45.349704509430325]},"properties":{"OBJECTID":24,"GlobalID":"{67D34F73-22A8-4CAC-ACAE-193C8D4187C6}","Observation_Type":"Yes","Notes":"Cute street very family friendly","Photos":["img_sept_observation/{67D34F73-22A8-4CAC-ACAE-193C8D4187C6}/48741b990bc74935ba2696ec1dd34eec.jpg"]}},{"type":"Feature","id":25,"geometry":{"type":"Point","coordinates":[-122.8617045212573,45.3541493339914]},"properties":{"OBJECTID":25,"GlobalID":"{5544BA4D-7211-4EC9-9F57-10CE64F42A84}","Observation_Type":"Yes","Notes":"Nice street","Photos":["img_sept_observation/{5544BA4D-7211-4EC9-9F57-10CE64F42A84}/b7986c55782344958b91e1616ee83f50.jpg"]}},{"type":"Feature","id":26,"geometry":{"type":"Point","coordinates":[-122.80377738869456,45.41055324088161]},"properties":{"OBJECTID":26,"GlobalID":"{BD131863-5B8F-4DDE-A9F5-C2F89923F4B1}","Observation_Type":"Yes","Notes":"Beautiful neighborhood ","Photos":["img_sept_observation/{BD131863-5B8F-4DDE-A9F5-C2F89923F4B1}/c2f76fae78bc406cb344af12c4815835.jpg"]}},{"type":"Feature","id":27,"geometry":{"type":"Point","coordinates":[-122.80680240792165,45.40852103777178]},"properties":{"OBJECTID":27,"GlobalID":"{CA9B415F-62F5-4513-881E-2507EB0DE48B}","Observation_Type":"Yes","Notes":"Hilly streets - cool neighborhood","Photos":["img_sept_observation/{CA9B415F-62F5-4513-881E-2507EB0DE48B}/f152d57f9d354e0b91b2c46becd88fb4.jpg"]}},{"type":"Feature","id":28,"geometry":{"type":"Point","coordinates":[-122.80426597698768,45.44387952301492]},"properties":{"OBJECTID":28,"GlobalID":"{F14D38DE-5105-4072-BE59-321F38E180BC}","Observation_Type":"Yes","Notes":"Homey neighborhood area","Photos":["img_sept_observation/{F14D38DE-5105-4072-BE59-321F38E180BC}/4c15aa9d98cd4cb8b78cf648b2433197.jpg"]}},{"type":"Feature","id":29,"geometry":{"type":"Point","coordinates":[-122.80128343819207,45.456826996440796]},"properties":{"OBJECTID":29,"GlobalID":"{021EF0CD-CFD8-4258-998D-12E415912D0B}","Observation_Type":"Yes","Notes":"Nice street","Photos":["img_sept_observation/{021EF0CD-CFD8-4258-998D-12E415912D0B}/7790e6588bf44aa59313433228abe671.jpg"]}},{"type":"Feature","id":30,"geometry":{"type":"Point","coordinates":[-122.79931046923186,45.488996410015254]},"properties":{"OBJECTID":30,"GlobalID":"{E7D891D6-1322-4E47-A5A5-1696F0E03792}","Observation_Type":"Remember","Notes":"Hold the Wheat restaurant ","Photos":["img_sept_observation/{E7D891D6-1322-4E47-A5A5-1696F0E03792}/cc1c76c0920b471c88b7cc1898aba52a.jpg"]}},{"type":"Feature","id":31,"geometry":{"type":"Point","coordinates":[-122.79925540160663,45.4889243067952]},"properties":{"OBJECTID":31,"GlobalID":"{3AED4146-B0B1-4B68-86E5-C63BFCCA0AE9}","Observation_Type":"Remember","Notes":"Take n bake stuff from hold the wheat","Photos":["img_sept_observation/{3AED4146-B0B1-4B68-86E5-C63BFCCA0AE9}/b487b03e8ecd49d38537c1ac0deefbcd.jpg"]}},{"type":"Feature","id":32,"geometry":{"type":"Point","coordinates":[-122.79181436505414,45.51694521252245]},"properties":{"OBJECTID":32,"GlobalID":"{71D81C34-C106-4B97-99E2-B5167794C2E7}","Observation_Type":"Yes","Notes":"Nice area!","Photos":["img_sept_observation/{71D81C34-C106-4B97-99E2-B5167794C2E7}/a702905c5f81411ea83a3a87e6e30edb.jpg"]}},{"type":"Feature","id":33,"geometry":{"type":"Point","coordinates":[-122.7778979494385,45.52615661286951]},"properties":{"OBJECTID":33,"GlobalID":"{F636A77B-8127-4062-B679-C2642E8A68EA}","Observation_Type":"Yes","Notes":"Great neighborhood ","Photos":["img_sept_observation/{F636A77B-8127-4062-B679-C2642E8A68EA}/3cc78911d0eb4a079de6301856614b43.jpg"]}},{"type":"Feature","id":34,"geometry":{"type":"Point","coordinates":[-122.778383151083,45.52552865339209]},"properties":{"OBJECTID":34,"GlobalID":"{B1944EB2-5B59-48CA-BC38-B8E970FA9295}","Observation_Type":"Yes","Notes":"Great street","Photos":["img_sept_observation/{B1944EB2-5B59-48CA-BC38-B8E970FA9295}/3bc32558e3524b6ebd029918b9f79510.jpg"]}},{"type":"Feature","id":35,"geometry":{"type":"Point","coordinates":[-122.78075403328987,45.52488087908591]},"properties":{"OBJECTID":35,"GlobalID":"{0BA21B2D-3743-47A1-A370-C089673E3F22}","Observation_Type":"Yes","Notes":"Great street","Photos":["img_sept_observation/{0BA21B2D-3743-47A1-A370-C089673E3F22}/7af6055cc377491bbe33369ca1a207da.jpg"]}},{"type":"Feature","id":36,"geometry":{"type":"Point","coordinates":[-122.79278542411332,45.52676676702871]},"properties":{"OBJECTID":36,"GlobalID":"{CEB3F5B6-52E8-4AFC-A697-A3A6AB537DA2}","Observation_Type":"Yes","Notes":"Great street","Photos":["img_sept_observation/{CEB3F5B6-52E8-4AFC-A697-A3A6AB537DA2}/77ffcf2cd6bc4b75ae655d41ce672776.jpg"]}},{"type":"Feature","id":37,"geometry":{"type":"Point","coordinates":[-122.79064951693027,45.5332104872494]},"properties":{"OBJECTID":37,"GlobalID":"{F29F55E1-A06C-48E8-BC00-9AC57360E1BD}","Observation_Type":"Yes","Notes":"Tucked in tree filled street","Photos":["img_sept_observation/{F29F55E1-A06C-48E8-BC00-9AC57360E1BD}/1a2af68e950b4e969b4e8b440f28443f.jpg"]}},{"type":"Feature","id":38,"geometry":{"type":"Point","coordinates":[-122.67234630599968,45.50855082650058]},"properties":{"OBJECTID":38,"GlobalID":"{96988623-2CC8-4E75-97E1-8436D3DC4531}","Observation_Type":"Remember","Notes":"River!","Photos":["img_sept_observation/{96988623-2CC8-4E75-97E1-8436D3DC4531}/e1fae14688c449318e722cefcf92fd39.jpg"]}},{"type":"Feature","id":39,"geometry":{"type":"Point","coordinates":[-122.79530642558397,45.49982545915005]},"properties":{"OBJECTID":39,"GlobalID":"{5C531959-0542-4FC8-8255-98179DE225D4}","Observation_Type":"Yes","Notes":"On the way to Cedar Hills Crossing - nice ","Photos":["img_sept_observation/{5C531959-0542-4FC8-8255-98179DE225D4}/a555d8149c2149599bda7db79d82381f.jpg"]}},{"type":"Feature","id":40,"geometry":{"type":"Point","coordinates":[-122.81717966254047,45.46274272132563]},"properties":{"OBJECTID":40,"GlobalID":"{C82A3B9A-C6B8-46E9-A83E-5B61CCD7F055}","Observation_Type":"Yes","Notes":"Beautiful neighborhood ","Photos":["img_sept_observation/{C82A3B9A-C6B8-46E9-A83E-5B61CCD7F055}/6991370111114e4884af1d577891dc84.jpg"]}},{"type":"Feature","id":41,"geometry":{"type":"Point","coordinates":[-122.81676178154166,45.46240993715625]},"properties":{"OBJECTID":41,"GlobalID":"{5DE50449-9479-46A1-BDF9-44F571980044}","Observation_Type":"Yes","Notes":"Great Beaverton neighborhood street","Photos":["img_sept_observation/{5DE50449-9479-46A1-BDF9-44F571980044}/d21f8f69e21b4cb7b0a2364f0945bc38.jpg"]}},{"type":"Feature","id":42,"geometry":{"type":"Point","coordinates":[-122.82103694392883,45.46282570378808]},"properties":{"OBJECTID":42,"GlobalID":"{94AD1A79-FFB1-417A-ABBA-B45E48F5CD58}","Observation_Type":"Yes","Notes":"Backs up to green space","Photos":["img_sept_observation/{94AD1A79-FFB1-417A-ABBA-B45E48F5CD58}/14578c09d9fa4ca4a6ada82852696405.jpg"]}},{"type":"Feature","id":43,"geometry":{"type":"Point","coordinates":[-122.83082069870744,45.44165078330442]},"properties":{"OBJECTID":43,"GlobalID":"{BE6FAF59-D16F-4B15-AFD1-5471B73588F1}","Observation_Type":"Yes","Notes":"Nice street","Photos":["img_sept_observation/{BE6FAF59-D16F-4B15-AFD1-5471B73588F1}/f4ce5a62141e4627a05a384b59e7d13e.jpg"]}},{"type":"Feature","id":44,"geometry":{"type":"Point","coordinates":[-122.84459869831083,45.43873034241693]},"properties":{"OBJECTID":44,"GlobalID":"{FE9063CD-2B9B-4134-BF88-628F27E784DD}","Observation_Type":"Yes","Notes":"Upscale woody vibes","Photos":["img_sept_observation/{FE9063CD-2B9B-4134-BF88-628F27E784DD}/ce050b1a6a1a4f23a8ea5634df450776.jpg"]}},{"type":"Feature","id":45,"geometry":{"type":"Point","coordinates":[-122.8363669960863,45.44761566817242]},"properties":{"OBJECTID":45,"GlobalID":"{376C3ABB-DFA2-4105-9DA7-4F3EA1E59CA8}","Observation_Type":"Yes","Notes":"Nice spot ","Photos":["img_sept_observation/{376C3ABB-DFA2-4105-9DA7-4F3EA1E59CA8}/6926f98429bf4aab85120f72d12f77ce.jpg"]}},{"type":"Feature","id":46,"geometry":{"type":"Point","coordinates":[-122.72662992387237,45.41039725071309]},"properties":{"OBJECTID":46,"GlobalID":"{A2636C94-C5E5-4EF5-A8CF-C29D798890C2}","Observation_Type":"Yes","Notes":"Great neighborhood!","Photos":["img_sept_observation/{A2636C94-C5E5-4EF5-A8CF-C29D798890C2}/a949778eade64360b33be535e8661565.jpg"]}},{"type":"Feature","id":47,"geometry":{"type":"Point","coordinates":[-122.72313902486417,45.406690386556775]},"properties":{"OBJECTID":47,"GlobalID":"{DAE7EFC1-10AE-41BC-A89F-23A8BF843146}","Observation_Type":"Yes","Notes":"Nice neighborhood","Photos":["img_sept_observation/{DAE7EFC1-10AE-41BC-A89F-23A8BF843146}/7ab42b136cb74eafbb4019a4d1e01580.jpg"]}},{"type":"Feature","id":48,"geometry":{"type":"Point","coordinates":[-122.7181552309567,45.39457355492689]},"properties":{"OBJECTID":48,"GlobalID":"{93D8593E-A8F3-4058-9C78-0208FD4BBB24}","Observation_Type":"Yes","Notes":"Great neighborhood - Bryany","Photos":["img_sept_observation/{93D8593E-A8F3-4058-9C78-0208FD4BBB24}/28adb51bc3404eb59123e27681b9a771.jpg"]}},{"type":"Feature","id":49,"geometry":{"type":"Point","coordinates":[-122.7143651929589,45.39491610115685]},"properties":{"OBJECTID":49,"GlobalID":"{7B0CF3AA-A16F-434F-9D34-F8BF25840D7F}","Observation_Type":"Yes","Notes":"Great neighborhood for us","Photos":["img_sept_observation/{7B0CF3AA-A16F-434F-9D34-F8BF25840D7F}/5d04c691dfe844619da65e42b7b60fa3.jpg"]}},{"type":"Feature","id":50,"geometry":{"type":"Point","coordinates":[-122.70917674396507,45.39558399545497]},"properties":{"OBJECTID":50,"GlobalID":"{99EDD677-5AEB-490A-B94D-7D47194421BC}","Observation_Type":"Yes","Notes":"Beautiful home!","Photos":["img_sept_observation/{99EDD677-5AEB-490A-B94D-7D47194421BC}/7d986fc323b54ea395a1390853c3fda9.jpg"]}},{"type":"Feature","id":51,"geometry":{"type":"Point","coordinates":[-122.68634184971712,45.44244781679526]},"properties":{"OBJECTID":51,"GlobalID":"{BD460556-211A-498E-A6FF-DA31073FDE6F}","Observation_Type":"Remember","Notes":"Cool nature walk","Photos":["img_sept_observation/{BD460556-211A-498E-A6FF-DA31073FDE6F}/ee9eb6757fb8490e8dc8fba38478b994.jpg"]}},{"type":"Feature","id":52,"geometry":{"type":"Point","coordinates":[-122.70894691089794,45.41197211215788]},"properties":{"OBJECTID":52,"GlobalID":"{D7F12FF0-8051-48F5-806A-B65148E4C5B3}","Observation_Type":"Yes","Notes":"Lake Oswego neighborhood","Photos":["img_sept_observation/{D7F12FF0-8051-48F5-806A-B65148E4C5B3}/1e4c011a6cb641c4b97337cdccb06c31.jpg"]}},{"type":"Feature","id":53,"geometry":{"type":"Point","coordinates":[-122.70827550286808,45.42407359883678]},"properties":{"OBJECTID":53,"GlobalID":"{F50F845C-354F-44CC-B71A-128A179D611A}","Observation_Type":"Remember","Notes":"What\u2019s Mountain Park?","Photos":["img_sept_observation/{F50F845C-354F-44CC-B71A-128A179D611A}/31aecfcc8e944539915b4e5ae2fdbd91.jpg"]}},{"type":"Feature","id":54,"geometry":{"type":"Point","coordinates":[-122.70624862780431,45.4309790240879]},"properties":{"OBJECTID":54,"GlobalID":"{1E6843CA-586B-496C-81BA-E4BAB160B53E}","Observation_Type":"No","Notes":"This area is all duplexes.","Photos":["img_sept_observation/{1E6843CA-586B-496C-81BA-E4BAB160B53E}/7176bd7a582f43a99bee8537acc27d95.jpg"]}},{"type":"Feature","id":55,"geometry":{"type":"Point","coordinates":[-122.70420891042525,45.43145990109374]},"properties":{"OBJECTID":55,"GlobalID":"{F0844A57-7824-428A-A85B-B15D14B3CD80}","Observation_Type":"No","Notes":"Area is all duplexes ","Photos":["img_sept_observation/{F0844A57-7824-428A-A85B-B15D14B3CD80}/bf8dc961f9b046de8ef3e73b9e0ff486.jpg"]}},{"type":"Feature","id":56,"geometry":{"type":"Point","coordinates":[-122.70003731840043,45.4333158377993]},"properties":{"OBJECTID":56,"GlobalID":"{679B2E12-0E16-459B-AC64-F15DCED2E2B4}","Observation_Type":"Remember","Notes":"$700K Lake Oswego house neighborhood","Photos":["img_sept_observation/{679B2E12-0E16-459B-AC64-F15DCED2E2B4}/765ce16ff52a4bc3aa5277faa440941a.jpg"]}},{"type":"Feature","id":57,"geometry":{"type":"Point","coordinates":[-122.62718074726267,45.50195797927054]},"properties":{"OBJECTID":57,"GlobalID":"{A5A94B2C-5374-4121-B4A2-0D6617DD97E6}","Observation_Type":"Yes","Notes":"Cute Portland proper neighborhood","Photos":["img_sept_observation/{A5A94B2C-5374-4121-B4A2-0D6617DD97E6}/b86ab687200940c79ee74ebb75143939.jpg"]}}]}