{"type":"FeatureCollection","features":[{"type":"Feature","properties":{"kind":"veterinary","name":"Burlingame Veterinary Clinic","osm":"287412104"},"geometry":{"type":"Point","coordinates":[-122.684007,45.462781]}},{"type":"Feature","properties":{"kind":"veterinary","name":"Overlook Veterinary Hospital","osm":"367479713"},"geometry":{"type":"Point","coordinates":[-122.687886,45.562888]}},{"type":"Feature","properties":{"kind":"veterinary","name":"Hillsdale Veterinary Hospital","osm":"289684243"},"geometry":{"type":"Point","coordinates":[-122.694976,45.478418]}},{"type":"Feature","properties":{"kind":"dog_park","name":"Dog Park","osm":"1551664513"},"geometry":{"type":"Point","coordinates":[-122.903375,45.489531]}},{"type":"Feature","properties":{"kind":"prison","name":"Multnomah County Juvenile Justice Complex","osm":"1225138259"},"geometry":{"type":"Point","coordinates":[-122.594673,45.53162]}},{"type":"Feature","properties":{"kind":"cinema","name":"Hollywood Theatre","osm":"39378928"},"geometry":{"type":"Point","coordinates":[-122.620586,45.535448]}},{"type":"Feature","properties":{"kind":"veterinary","name":"Healing Arts Animal Care","osm":"415634506"},"geometry":{"type":"Point","coordinates":[-122.757292,45.484482]}},{"type":"Feature","properties":{"kind":"theme_park","name":"Oaks Amusement Park","osm":"133763431"},"geometry":{"type":"Point","coordinates":[-122.662694,45.471707]}},{"type":"Feature","properties":{"kind":"dog_park","name":"Sellwood Dog Park","osm":"837651621"},"geometry":{"type":"Point","coordinates":[-122.663469,45.466516]}},{"type":"Feature","properties":{"kind":"veterinary","name":"The Animal Eye Doctor","osm":"327189458"},"geometry":{"type":"Point","coordinates":[-122.807647,45.485565]}},{"type":"Feature","properties":{"kind":"dog_park","name":"Waluga Dog Park","osm":"1207915907"},"geometry":{"type":"Point","coordinates":[-122.72914,45.41143]}},{"type":"Feature","properties":{"kind":"dog_park","name":"Orenco Dog Park","osm":"497965288"},"geometry":{"type":"Point","coordinates":[-122.913111,45.532329]}},{"type":"Feature","properties":{"kind":"dog_park","name":"Dog Park","osm":"728149897"},"geometry":{"type":"Point","coordinates":[-122.521686,45.449333]}},{"type":"Feature","properties":{"kind":"dog_park","name":"Dog Park","osm":"996143842"},"geometry":{"type":"Point","coordinates":[-122.916912,45.497032]}},{"type":"Feature","properties":{"kind":"cinema","name":"Studio One Theaters","osm":"421376679"},"geometry":{"type":"Point","coordinates":[-122.621317,45.498176]}},{"type":"Feature","properties":{"kind":"veterinary","name":"Community Pet Hospital","osm":"481700421"},"geometry":{"type":"Point","coordinates":[-122.782096,45.421973]}},{"type":"Feature","properties":{"kind":"veterinary","name":"Banfield Pet Hospital","osm":"292905517"},"geometry":{"type":"Point","coordinates":[-122.687478,45.471652]}},{"type":"Feature","properties":{"kind":"fitness_centre","name":"LA Fitness","osm":"418198692"},"geometry":{"type":"Point","coordinates":[-122.75267,45.385633]}},{"type":"Feature","properties":{"kind":"veterinary","name":"Cascade Summit Animal Hospital","osm":"491711483"},"geometry":{"type":"Point","coordinates":[-122.64788,45.363884]}},{"type":"Feature","properties":{"kind":"veterinary","name":"Beaverton Pet Clinic","osm":"201484153"},"geometry":{"type":"Point","coordinates":[-122.799401,45.486465]}},{"type":"Feature","properties":{"kind":"veterinary","name":"VCA Rock Creek Animal Hospital","osm":"331189557"},"geometry":{"type":"Point","coordinates":[-122.867884,45.530506]}},{"type":"Feature","properties":{"kind":"veterinary","name":"Sunshine Pet Clinic","osm":"490598474"},"geometry":{"type":"Point","coordinates":[-122.824244,45.475765]}},{"type":"Feature","properties":{"kind":"veterinary","name":"Pet Samaritan Clinic","osm":"107524687"},"geometry":{"type":"Point","coordinates":[-122.640043,45.523025]}},{"type":"Feature","properties":{"kind":"veterinary","name":"Banfield Pet Hospital","osm":"855309016"},"geometry":{"type":"Point","coordinates":[-122.57851,45.536]}},{"type":"Feature","properties":{"kind":"dog_park","name":"Durham Park Off-leash dog area","osm":"888793809"},"geometry":{"type":"Point","coordinates":[-122.763721,45.395864]}},{"type":"Feature","properties":{"kind":"dog_park","name":"Fido's Indoor Dog Park","osm":"482738147"},"geometry":{"type":"Point","coordinates":[-122.64097,45.487263]}},{"type":"Feature","properties":{"kind":"dog_park","name":"Dog Park","osm":"387599775"},"geometry":{"type":"Point","coordinates":[-122.910265,45.553234]}},{"type":"Feature","properties":{"kind":"fitness_centre","name":"Planet Fitness","osm":"40994611"},"geometry":{"type":"Point","coordinates":[-122.661285,45.541854]}},{"type":"Feature","properties":{"kind":"veterinary","name":"The Animal Eye Doctor","osm":"203375231"},"geometry":{"type":"Point","coordinates":[-122.808762,45.495383]}},{"type":"Feature","properties":{"kind":"veterinary","name":"Woodstock Animal Hospital","osm":"459634022"},"geometry":{"type":"Point","coordinates":[-122.611563,45.479067]}},{"type":"Feature","properties":{"kind":"dog_park","name":"Dog Park","osm":"871467931"},"geometry":{"type":"Point","coordinates":[-122.901587,45.479661]}},{"type":"Feature","properties":{"kind":"dog_park","name":"Dog Park","osm":"728149872"},"geometry":{"type":"Point","coordinates":[-122.501043,45.429043]}},{"type":"Feature","properties":{"kind":"cinema","name":"Clinton Street Theater","osm":"255968968"},"geometry":{"type":"Point","coordinates":[-122.640625,45.503356]}},{"type":"Feature","properties":{"kind":"dog_park","name":"Jackie Husen Dog Run","osm":"1067038725"},"geometry":{"type":"Point","coordinates":[-122.788931,45.529261]}},{"type":"Feature","properties":{"kind":"prison","name":"Multnomah County Inverness Jail","osm":"1037292063"},"geometry":{"type":"Point","coordinates":[-122.543545,45.563592]}},{"type":"Feature","properties":{"kind":"dog_park","name":"Dog Park","osm":"1101872601"},"geometry":{"type":"Point","coordinates":[-122.82832,45.444321]}},{"type":"Feature","properties":{"kind":"cinema","name":"Regal Hilltop 9","osm":"486695225"},"geometry":{"type":"Point","coordinates":[-122.593306,45.334432]}},{"type":"Feature","properties":{"kind":"veterinary","name":"Best Friends Veterinary Medical Center","osm":"326643249"},"geometry":{"type":"Point","coordinates":[-122.676471,45.491067]}},{"type":"Feature","properties":{"kind":"veterinary","name":"Banfield Pet Hospital","osm":"403181642"},"geometry":{"type":"Point","coordinates":[-122.801312,45.521228]}},{"type":"Feature","properties":{"kind":"dog_park","name":"Dog Park","osm":"609825373"},"geometry":{"type":"Point","coordinates":[-122.674804,45.508461]}},{"type":"Feature","properties":{"kind":"veterinary","name":"Bethany Family Pet Clinic","osm":"323928532"},"geometry":{"type":"Point","coordinates":[-122.831949,45.553386]}},{"type":"Feature","properties":{"kind":"veterinary","name":"Willamette Valley Animal Hospital","osm":"437403392"},"geometry":{"type":"Point","coordinates":[-122.567455,45.406283]}},{"type":"Feature","properties":{"kind":"dog_park","name":"Dog Park","osm":"14645956"},"geometry":{"type":"Point","coordinates":[-122.670461,45.477377]}},{"type":"Feature","properties":{"kind":"dog_park","name":"Ash Avenue Dog Park","osm":"130791864"},"geometry":{"type":"Point","coordinates":[-122.769374,45.428387]}},{"type":"Feature","properties":{"kind":"cinema","name":"Century 16","osm":"115829209"},"geometry":{"type":"Point","coordinates":[-122.574456,45.493301]}},{"type":"Feature","properties":{"kind":"veterinary","name":"Animal Aid","osm":"295958879"},"geometry":{"type":"Point","coordinates":[-122.720867,45.485068]}},{"type":"Feature","properties":{"kind":"dog_park","name":"Dog Park","osm":"1193883925"},"geometry":{"type":"Point","coordinates":[-122.802765,45.47019]}},{"type":"Feature","properties":{"kind":"dog_park","name":"East Holladay Dog Park","osm":"1233920735"},"geometry":{"type":"Point","coordinates":[-122.529282,45.532067]}},{"type":"Feature","properties":{"kind":"veterinary","name":"Holistic Pet Vet Clinic","osm":"354397576"},"geometry":{"type":"Point","coordinates":[-122.748854,45.442013]}},{"type":"Feature","properties":{"kind":"veterinary","name":"Bridgetown Veterinary Emergency + Referral","osm":"435358015"},"geometry":{"type":"Point","coordinates":[-122.747688,45.409383]}},{"type":"Feature","properties":{"kind":"veterinary","name":"Hillsboro Veterinary Clinic","osm":"341388947"},"geometry":{"type":"Point","coordinates":[-122.990143,45.519712]}},{"type":"Feature","properties":{"kind":"veterinary","name":"The Avian Medical Center","osm":"349957028"},"geometry":{"type":"Point","coordinates":[-122.720625,45.409848]}},{"type":"Feature","properties":{"kind":"prison","name":"Prison","osm":"786992100"},"geometry":{"type":"Point","coordinates":[-122.99308,45.520759]}},{"type":"Feature","properties":{"kind":"dog_park","name":"Dog Park","osm":"728149895"},"geometry":{"type":"Point","coordinates":[-122.522263,45.44925]}},{"type":"Feature","properties":{"kind":"veterinary","name":"Cat and Dog Hospital","osm":"290626809"},"geometry":{"type":"Point","coordinates":[-122.653748,45.464908]}},{"type":"Feature","properties":{"kind":"prison","name":"Clackamas County Jail","osm":"635528342"},"geometry":{"type":"Point","coordinates":[-122.599028,45.329699]}},{"type":"Feature","properties":{"kind":"dog_park","name":"Dog Park","osm":"1490248888"},"geometry":{"type":"Point","coordinates":[-122.763771,45.506407]}},{"type":"Feature","properties":{"kind":"cinema","name":"Moreland Theater","osm":"458421106"},"geometry":{"type":"Point","coordinates":[-122.648433,45.474469]}},{"type":"Feature","properties":{"kind":"theme_park","name":"Family Fun Center","osm":"111707439"},"geometry":{"type":"Point","coordinates":[-122.767725,45.309831]}},{"type":"Feature","properties":{"kind":"veterinary","name":"Cathedral Animal Hospital","osm":"365806225"},"geometry":{"type":"Point","coordinates":[-122.757602,45.591331]}},{"type":"Feature","properties":{"kind":"dog_park","name":"Dog Park","osm":"1073262282"},"geometry":{"type":"Point","coordinates":[-122.486453,45.42474]}},{"type":"Feature","properties":{"kind":"dog_park","name":"Thatcher Park Off Leash Dog Park","osm":"544013338"},"geometry":{"type":"Point","coordinates":[-123.133789,45.538914]}},{"type":"Feature","properties":{"kind":"veterinary","name":"Cedar Mill Veterinary Hospital","osm":"324143885"},"geometry":{"type":"Point","coordinates":[-122.808727,45.52452]}},{"type":"Feature","properties":{"kind":"dog_park","name":"Dog Park","osm":"996143843"},"geometry":{"type":"Point","coordinates":[-122.914371,45.496239]}},{"type":"Feature","properties":{"kind":"veterinary","name":"Oregon Zoo Veterinary Medical Center","osm":"267340985"},"geometry":{"type":"Point","coordinates":[-122.713616,45.510646]}},{"type":"Feature","properties":{"kind":"dog_park","name":"Sacajawea Dog Park Off-Leash Area","osm":"581312666"},"geometry":{"type":"Point","coordinates":[-122.586134,45.559713]}},{"type":"Feature","properties":{"kind":"dog_park","name":"Dog Park","osm":"836678285"},"geometry":{"type":"Point","coordinates":[-122.736317,45.486785]}},{"type":"Feature","properties":{"kind":"cinema","name":"Mount Hood Theatre","osm":"239309252"},"geometry":{"type":"Point","coordinates":[-122.426819,45.498376]}},{"type":"Feature","properties":{"kind":"dog_park","name":"East Delta Park Off-Leash Area","osm":"131770319"},"geometry":{"type":"Point","coordinates":[-122.675867,45.599565]}},{"type":"Feature","properties":{"kind":"dog_park","name":"Dog Park","osm":"675755055"},"geometry":{"type":"Point","coordinates":[-122.711347,45.449671]}},{"type":"Feature","properties":{"kind":"fitness_centre","name":"LA Fitness","osm":"187354176"},"geometry":{"type":"Point","coordinates":[-122.812799,45.499472]}},{"type":"Feature","properties":{"kind":"dog_park","name":"Council Crest Off-Leash Area","osm":"1186856370"},"geometry":{"type":"Point","coordinates":[-122.706363,45.498079]}},{"type":"Feature","properties":{"kind":"veterinary","name":"Forest Heights Veterinary Clinic","osm":"367743752"},"geometry":{"type":"Point","coordinates":[-122.752714,45.516869]}},{"type":"Feature","properties":{"kind":"dog_park","name":"Dog Park","osm":"1511187004"},"geometry":{"type":"Point","coordinates":[-122.408909,45.4872]}},{"type":"Feature","properties":{"kind":"veterinary","name":"Gladstone Veterinary Clinic","osm":"315000506"},"geometry":{"type":"Point","coordinates":[-122.610929,45.389708]}},{"type":"Feature","properties":{"kind":"dog_park","name":"Dog Park","osm":"1144245888"},"geometry":{"type":"Point","coordinates":[-122.854345,45.509666]}},{"type":"Feature","properties":{"kind":"dog_park","name":"Fernhill Dogpark","osm":"568861152"},"geometry":{"type":"Point","coordinates":[-122.623032,45.567642]}},{"type":"Feature","properties":{"kind":"veterinary","name":"Beaverton Pet Clinic","osm":"453658330"},"geometry":{"type":"Point","coordinates":[-122.779499,45.486026]}},{"type":"Feature","properties":{"kind":"dog_park","name":"Winkelman Dog Park","osm":"472411469"},"geometry":{"type":"Point","coordinates":[-122.857493,45.447107]}},{"type":"Feature","properties":{"kind":"veterinary","name":"Veterinary Surgical Center of Portland","osm":"325842916"},"geometry":{"type":"Point","coordinates":[-122.781709,45.508993]}},{"type":"Feature","properties":{"kind":"fitness_centre","name":"Planet Fitness","osm":"373174826"},"geometry":{"type":"Point","coordinates":[-122.885125,45.496709]}},{"type":"Feature","properties":{"kind":"dog_park","name":"Chimney Dog Park","osm":"494926163"},"geometry":{"type":"Point","coordinates":[-122.75789,45.606801]}},{"type":"Feature","properties":{"kind":"dog_park","name":"Pilkington Dog Park","osm":"1210444193"},"geometry":{"type":"Point","coordinates":[-122.735452,45.387525]}},{"type":"Feature","properties":{"kind":"veterinary","name":"Animal Dermatology Clinic","osm":"367517290"},"geometry":{"type":"Point","coordinates":[-122.748541,45.486079]}},{"type":"Feature","properties":{"kind":"veterinary","name":"Aloha Dog & Cat Hospital","osm":"327357698"},"geometry":{"type":"Point","coordinates":[-122.855521,45.492881]}},{"type":"Feature","properties":{"kind":"fitness_centre","name":"Planet Fitness","osm":"436330493"},"geometry":{"type":"Point","coordinates":[-122.971664,45.512154]}},{"type":"Feature","properties":{"kind":"veterinary","name":"Back on Track","osm":"300547754"},"geometry":{"type":"Point","coordinates":[-122.709699,45.460268]}},{"type":"Feature","properties":{"kind":"dog_park","name":"Dog Park","osm":"916110863"},"geometry":{"type":"Point","coordinates":[-122.899657,45.490974]}},{"type":"Feature","properties":{"kind":"prison","name":"Washington County Community Corrections Center","osm":"311084880"},"geometry":{"type":"Point","coordinates":[-122.990734,45.520649]}},{"type":"Feature","properties":{"kind":"dog_park","name":"Dog Park","osm":"591594507"},"geometry":{"type":"Point","coordinates":[-122.688015,45.396023]}},{"type":"Feature","properties":{"kind":"veterinary","name":"Compass Veterinary Clinic","osm":"110687480"},"geometry":{"type":"Point","coordinates":[-122.702504,45.433751]}},{"type":"Feature","properties":{"kind":"veterinary","name":"Sunnyside Veterinary Hospital","osm":"1306015710"},"geometry":{"type":"Point","coordinates":[-122.513603,45.425688]}},{"type":"Feature","properties":{"kind":"dog_park","name":"Off Leash Area","osm":"437695507"},"geometry":{"type":"Point","coordinates":[-122.759715,45.586934]}},{"type":"Feature","properties":{"kind":"dog_park","name":"Dog Park","osm":"39799548"},"geometry":{"type":"Point","coordinates":[-122.657558,45.546931]}},{"type":"Feature","properties":{"kind":"dog_park","name":"Dog Park","osm":"996143844"},"geometry":{"type":"Point","coordinates":[-122.917025,45.497258]}},{"type":"Feature","properties":{"kind":"dog_park","name":"Dog Park","osm":"988788383"},"geometry":{"type":"Point","coordinates":[-122.608942,45.427562]}},{"type":"Feature","properties":{"kind":"veterinary","name":"Happy Valley Veterinary Hospital","osm":"478680657"},"geometry":{"type":"Point","coordinates":[-122.499283,45.428437]}},{"type":"Feature","properties":{"kind":"veterinary","name":"Hawthorne Veterinary Clinic","osm":"309492264"},"geometry":{"type":"Point","coordinates":[-122.643956,45.512839]}},{"type":"Feature","properties":{"kind":"dog_park","name":"Dog Park","osm":"996143839"},"geometry":{"type":"Point","coordinates":[-122.921606,45.498867]}},{"type":"Feature","properties":{"kind":"dog_park","name":"Dog Park","osm":"365800640"},"geometry":{"type":"Point","coordinates":[-122.910594,45.55281]}},{"type":"Feature","properties":{"kind":"dog_park","name":"Wallace Park Off-Leash Area","osm":"403363696"},"geometry":{"type":"Point","coordinates":[-122.703211,45.533623]}},{"type":"Feature","properties":{"kind":"veterinary","name":"Powell Boulevard Veterinary Clinic","osm":"367938778"},"geometry":{"type":"Point","coordinates":[-122.625583,45.497114]}},{"type":"Feature","properties":{"kind":"dog_park","name":"Dog Park","osm":"978569793"},"geometry":{"type":"Point","coordinates":[-122.898497,45.49596]}},{"type":"Feature","properties":{"kind":"veterinary","name":"Barbur Boulevard Veterinary Hospital","osm":"344543107"},"geometry":{"type":"Point","coordinates":[-122.729507,45.448587]}},{"type":"Feature","properties":{"kind":"fitness_centre","name":"Planet Fitness","osm":"482891943"},"geometry":{"type":"Point","coordinates":[-122.82889,45.441402]}},{"type":"Feature","properties":{"kind":"cinema","name":"Living Room Theaters","osm":"321768744"},"geometry":{"type":"Point","coordinates":[-122.681461,45.52237]}},{"type":"Feature","properties":{"kind":"veterinary","name":"Animal Dermatology Clinic","osm":"552077336"},"geometry":{"type":"Point","coordinates":[-122.577616,45.441711]}},{"type":"Feature","properties":{"kind":"dog_park","name":"Dog Park","osm":"1073262252"},"geometry":{"type":"Point","coordinates":[-122.488112,45.434304]}},{"type":"Feature","properties":{"kind":"dog_park","name":"Dog Park","osm":"1039425417"},"geometry":{"type":"Point","coordinates":[-122.906797,45.495833]}},{"type":"Feature","properties":{"kind":"dog_park","name":"Dog Park","osm":"1421301079"},"geometry":{"type":"Point","coordinates":[-122.829711,45.57393]}},{"type":"Feature","properties":{"kind":"fitness_centre","name":"24 Hour Fitness Super Sport","osm":"101218552"},"geometry":{"type":"Point","coordinates":[-122.619942,45.533296]}},{"type":"Feature","properties":{"kind":"zoo","name":"Family Farm","osm":"267340986"},"geometry":{"type":"Point","coordinates":[-122.715002,45.51036]}},{"type":"Feature","properties":{"kind":"dog_park","name":"Dog Park","osm":"1138604868"},"geometry":{"type":"Point","coordinates":[-122.899709,45.490475]}},{"type":"Feature","properties":{"kind":"dog_park","name":"Dog Park","osm":"1123555794"},"geometry":{"type":"Point","coordinates":[-122.570621,45.312992]}},{"type":"Feature","properties":{"kind":"dog_park","name":"Dog Park","osm":"1500997545"},"geometry":{"type":"Point","coordinates":[-122.42923,45.49593]}},{"type":"Feature","properties":{"kind":"dog_park","name":"Dog Park","osm":"1511187005"},"geometry":{"type":"Point","coordinates":[-122.409668,45.487202]}},{"type":"Feature","properties":{"kind":"veterinary","name":"Alberta Veterinary Care","osm":"412054636"},"geometry":{"type":"Point","coordinates":[-122.643979,45.558278]}},{"type":"Feature","properties":{"kind":"dog_park","name":"Arbor Lodge Park Off Leash Area","osm":"272505205"},"geometry":{"type":"Point","coordinates":[-122.694355,45.573187]}},{"type":"Feature","properties":{"kind":"veterinary","name":"MISCA","osm":"99447824"},"geometry":{"type":"Point","coordinates":[-122.643414,45.389116]}},{"type":"Feature","properties":{"kind":"dog_park","name":"Dog Park","osm":"345128600"},"geometry":{"type":"Point","coordinates":[-122.682266,45.533505]}},{"type":"Feature","properties":{"kind":"dog_park","name":"Dog Park","osm":"473249739"},"geometry":{"type":"Point","coordinates":[-122.767857,45.312876]}},{"type":"Feature","properties":{"kind":"veterinary","name":"Gabriel Park Veterinary Clinic","osm":"289415583"},"geometry":{"type":"Point","coordinates":[-122.721967,45.476787]}},{"type":"Feature","properties":{"kind":"dog_park","name":"Dog Park","osm":"203033389"},"geometry":{"type":"Point","coordinates":[-122.672166,45.558566]}},{"type":"Feature","properties":{"kind":"fitness_centre","name":"Planet Fitness","osm":"239311969"},"geometry":{"type":"Point","coordinates":[-122.406952,45.492812]}},{"type":"Feature","properties":{"kind":"dog_park","name":"Dog Park","osm":"146690542"},"geometry":{"type":"Point","coordinates":[-122.720554,45.470798]}},{"type":"Feature","properties":{"kind":"fitness_centre","name":"Planet Fitness","osm":"969987606"},"geometry":{"type":"Point","coordinates":[-122.85197,45.365884]}},{"type":"Feature","properties":{"kind":"veterinary","name":"Sorrento Animal Hospital","osm":"1021750475"},"geometry":{"type":"Point","coordinates":[-122.806494,45.443041]}},{"type":"Feature","properties":{"kind":"dog_park","name":"Dog Park","osm":"1073262251"},"geometry":{"type":"Point","coordinates":[-122.486716,45.43411]}},{"type":"Feature","properties":{"kind":"veterinary","name":"Canyon Pet Hospital","osm":"352704296"},"geometry":{"type":"Point","coordinates":[-122.827954,45.475741]}},{"type":"Feature","properties":{"kind":"fitness_centre","name":"24 Hour Fitness","osm":"417139929"},"geometry":{"type":"Point","coordinates":[-122.573438,45.429567]}},{"type":"Feature","properties":{"kind":"veterinary","name":"Banfield Pet Hospital","osm":"550744527"},"geometry":{"type":"Point","coordinates":[-122.754934,45.515205]}},{"type":"Feature","properties":{"kind":"veterinary","name":"Banfield Pet Hospital","osm":"522615603"},"geometry":{"type":"Point","coordinates":[-122.757584,45.382756]}},{"type":"Feature","properties":{"kind":"veterinary","name":"Portland Veterinary Wellness Center","osm":"855294614"},"geometry":{"type":"Point","coordinates":[-122.579106,45.547075]}},{"type":"Feature","properties":{"kind":"dog_park","name":"Potso Dog Park","osm":"149066507"},"geometry":{"type":"Point","coordinates":[-122.760116,45.425603]}},{"type":"Feature","properties":{"kind":"veterinary","name":"Powell Veterinary","osm":"367897399"},"geometry":{"type":"Point","coordinates":[-122.649365,45.476976]}},{"type":"Feature","properties":{"kind":"dog_park","name":"Summerlake Dog Park","osm":"479748565"},"geometry":{"type":"Point","coordinates":[-122.809323,45.43651]}},{"type":"Feature","properties":{"kind":"veterinary","name":"Southwest Animal Hospital","osm":"312298589"},"geometry":{"type":"Point","coordinates":[-122.80612,45.502725]}},{"type":"Feature","properties":{"kind":"veterinary","name":"Linwood Animal Clinic","osm":"370262316"},"geometry":{"type":"Point","coordinates":[-122.599783,45.448359]}},{"type":"Feature","properties":{"kind":"fitness_centre","name":"24 Hour Fitness","osm":"324118998"},"geometry":{"type":"Point","coordinates":[-122.837314,45.527561]}},{"type":"Feature","properties":{"kind":"veterinary","name":"Town & Country Animal Hospital","osm":"498962535"},"geometry":{"type":"Point","coordinates":[-122.533988,45.504444]}},{"type":"Feature","properties":{"kind":"cinema","name":"Regal Stark Street Stadium 10","osm":"368848197"},"geometry":{"type":"Point","coordinates":[-122.398911,45.516942]}},{"type":"Feature","properties":{"kind":"veterinary","name":"Banfield Pet Hospital","osm":"367897873"},"geometry":{"type":"Point","coordinates":[-122.649573,45.477621]}},{"type":"Feature","properties":{"kind":"veterinary","name":"Lake Grove Veterinary Clinic","osm":"350706038"},"geometry":{"type":"Point","coordinates":[-122.734225,45.402107]}},{"type":"Feature","properties":{"kind":"veterinary","name":"Dove Lewis Animal Hospital","osm":"204613578"},"geometry":{"type":"Point","coordinates":[-122.691169,45.533004]}},{"type":"Feature","properties":{"kind":"dog_park","name":"Hazeldale Dog Park","osm":"837645388"},"geometry":{"type":"Point","coordinates":[-122.876469,45.472584]}},{"type":"Feature","properties":{"kind":"dog_park","name":"Dog Park","osm":"723283998"},"geometry":{"type":"Point","coordinates":[-122.92068,45.564068]}},{"type":"Feature","properties":{"kind":"dog_park","name":"Normandale Park Off-Leash Area","osm":"507824616"},"geometry":{"type":"Point","coordinates":[-122.606168,45.531618]}},{"type":"Feature","properties":{"kind":"dog_park","name":"Wishire Off Leash Dog Park","osm":"281372468"},"geometry":{"type":"Point","coordinates":[-122.626073,45.552979]}},{"type":"Feature","properties":{"kind":"cinema","name":"Clackamas Town Center and XD","osm":"735206018"},"geometry":{"type":"Point","coordinates":[-122.573677,45.436925]}},{"type":"Feature","properties":{"kind":"veterinary","name":"Sherwood Family Pet Clinic","osm":"1434655105"},"geometry":{"type":"Point","coordinates":[-122.832388,45.36848]}},{"type":"Feature","properties":{"kind":"veterinary","name":"Milwaukie Animal Clinic","osm":"397904036"},"geometry":{"type":"Point","coordinates":[-122.617605,45.399844]}},{"type":"Feature","properties":{"kind":"veterinary","name":"Raleigh Hills Animal Hospital","osm":"415634519"},"geometry":{"type":"Point","coordinates":[-122.757295,45.484548]}},{"type":"Feature","properties":{"kind":"cinema","name":"Bagdad","osm":"368252726"},"geometry":{"type":"Point","coordinates":[-122.624766,45.511504]}},{"type":"Feature","properties":{"kind":"fitness_centre","name":"Planet Fitness","osm":"319800944"},"geometry":{"type":"Point","coordinates":[-122.625045,45.442027]}},{"type":"Feature","properties":{"kind":"fitness_centre","name":"24 Hour Fitness","osm":"1224909604"},"geometry":{"type":"Point","coordinates":[-122.683861,45.528291]}},{"type":"Feature","properties":{"kind":"dog_park","name":"Dog Park","osm":"431480365"},"geometry":{"type":"Point","coordinates":[-122.742583,45.384146]}},{"type":"Feature","properties":{"kind":"veterinary","name":"VCA Laurelhurst Animal Hospital","osm":"480969134"},"geometry":{"type":"Point","coordinates":[-122.635696,45.530481]}},{"type":"Feature","properties":{"kind":"cinema","name":"Evergreen 13","osm":"53049153"},"geometry":{"type":"Point","coordinates":[-122.871567,45.539038]}},{"type":"Feature","properties":{"kind":"veterinary","name":"Spruce Veterinary Urgent Care","osm":"1051965958"},"geometry":{"type":"Point","coordinates":[-122.901648,45.493066]}},{"type":"Feature","properties":{"kind":"cinema","name":"St. Johns Theater & Pub","osm":"289786402"},"geometry":{"type":"Point","coordinates":[-122.750853,45.588331]}},{"type":"Feature","properties":{"kind":"veterinary","name":"Feral Cat Coalition of Oregon","osm":"327627148"},"geometry":{"type":"Point","coordinates":[-122.675753,45.490062]}},{"type":"Feature","properties":{"kind":"dog_park","name":"Dog Park","osm":"1082259929"},"geometry":{"type":"Point","coordinates":[-122.785663,45.397253]}},{"type":"Feature","properties":{"kind":"veterinary","name":"Sherwood Family Pet Clinic","osm":"496025781"},"geometry":{"type":"Point","coordinates":[-122.841216,45.367399]}},{"type":"Feature","properties":{"kind":"veterinary","name":"Broadway Veterinary Clinic","osm":"367678464"},"geometry":{"type":"Point","coordinates":[-122.641326,45.535082]}},{"type":"Feature","properties":{"kind":"dog_park","name":"Memorial Dog Park","osm":"12507543"},"geometry":{"type":"Point","coordinates":[-122.756184,45.298337]}},{"type":"Feature","properties":{"kind":"dog_park","name":"Dog Park","osm":"728149896"},"geometry":{"type":"Point","coordinates":[-122.521861,45.449618]}},{"type":"Feature","properties":{"kind":"dog_park","name":"Off Leash Dog Park","osm":"1228976952"},"geometry":{"type":"Point","coordinates":[-122.625527,45.480059]}},{"type":"Feature","properties":{"kind":"fitness_centre","name":"24 Hour Fitness","osm":"353077717"},"geometry":{"type":"Point","coordinates":[-122.919918,45.500031]}},{"type":"Feature","properties":{"kind":"fitness_centre","name":"24 Hour Fitness","osm":"51541595"},"geometry":{"type":"Point","coordinates":[-122.829494,45.439116]}},{"type":"Feature","properties":{"kind":"dog_park","name":"Fernhill City Dog Park","osm":"99256833"},"geometry":{"type":"Point","coordinates":[-122.622573,45.566711]}},{"type":"Feature","properties":{"kind":"fitness_centre","name":"LA Fitness","osm":"328702624"},"geometry":{"type":"Point","coordinates":[-122.902827,45.549261]}},{"type":"Feature","properties":{"kind":"cinema","name":"Saint Johns Cinema","osm":"64765254"},"geometry":{"type":"Point","coordinates":[-122.755297,45.590453]}},{"type":"Feature","properties":{"kind":"prison","name":"Washington County Jail","osm":"117426611"},"geometry":{"type":"Point","coordinates":[-122.993311,45.520857]}},{"type":"Feature","properties":{"kind":"veterinary","name":"Companion Animal Hospital","osm":"995002885"},"geometry":{"type":"Point","coordinates":[-122.956748,45.521259]}},{"type":"Feature","properties":{"kind":"cinema","name":"Cinema 21","osm":"373536789"},"geometry":{"type":"Point","coordinates":[-122.694003,45.527231]}},{"type":"Feature","properties":{"kind":"veterinary","name":"Moreland Veterinary Hospital","osm":"428139555"},"geometry":{"type":"Point","coordinates":[-122.649283,45.472336]}},{"type":"Feature","properties":{"kind":"dog_park","name":"Dog Park","osm":"1303163056"},"geometry":{"type":"Point","coordinates":[-122.87673,45.528049]}},{"type":"Feature","properties":{"kind":"veterinary","name":"Aloha Animal Medical Center","osm":"539936430"},"geometry":{"type":"Point","coordinates":[-122.86178,45.482358]}},{"type":"Feature","properties":{"kind":"veterinary","name":"West Slope Veterinary Hospital","osm":"317994982"},"geometry":{"type":"Point","coordinates":[-122.784483,45.492838]}},{"type":"Feature","properties":{"kind":"dog_park","name":"Dog Park","osm":"93031873"},"geometry":{"type":"Point","coordinates":[-122.571698,45.485358]}},{"type":"Feature","properties":{"kind":"dog_park","name":"Dog Park","osm":"996143834"},"geometry":{"type":"Point","coordinates":[-122.914908,45.496153]}},{"type":"Feature","properties":{"kind":"fitness_centre","name":"Planet Fitness","osm":"368255894"},"geometry":{"type":"Point","coordinates":[-122.535555,45.534605]}},{"type":"Feature","properties":{"kind":"veterinary","name":"East Hills Animal Clinic","osm":"607229504"},"geometry":{"type":"Point","coordinates":[-122.540802,45.428551]}},{"type":"Feature","properties":{"kind":"cinema","name":"Cornelius 9 Cinemas","osm":"180069655"},"geometry":{"type":"Point","coordinates":[-123.039028,45.521949]}},{"type":"Feature","properties":{"kind":"dog_park","name":"Tualatin Dog Park","osm":"466581155"},"geometry":{"type":"Point","coordinates":[-122.763995,45.388946]}},{"type":"Feature","properties":{"kind":"dog_park","name":"Dog Park","osm":"1304372722"},"geometry":{"type":"Point","coordinates":[-122.849662,45.421656]}},{"type":"Feature","properties":{"kind":"veterinary","name":"Canterbury Animal Hospital","osm":"354113290"},"geometry":{"type":"Point","coordinates":[-122.788178,45.416063]}},{"type":"Feature","properties":{"kind":"dog_park","name":"Dog Park","osm":"1423126281"},"geometry":{"type":"Point","coordinates":[-122.917719,45.532911]}},{"type":"Feature","properties":{"kind":"veterinary","name":"Banfield Pet Hospital","osm":"1235092473"},"geometry":{"type":"Point","coordinates":[-122.806614,45.501019]}},{"type":"Feature","properties":{"kind":"cinema","name":"Cinemark Century 16","osm":"32943164"},"geometry":{"type":"Point","coordinates":[-122.811915,45.497762]}},{"type":"Feature","properties":{"kind":"dog_park","name":"South Waterfront Dog Park","osm":"1078912877"},"geometry":{"type":"Point","coordinates":[-122.667497,45.497761]}},{"type":"Feature","properties":{"kind":"dog_park","name":"Schiffler Park Dog Run","osm":"837644000"},"geometry":{"type":"Point","coordinates":[-122.815789,45.479362]}},{"type":"Feature","properties":{"kind":"dog_park","name":"Dog Park","osm":"1012572678"},"geometry":{"type":"Point","coordinates":[-122.929134,45.495066]}},{"type":"Feature","properties":{"kind":"fitness_centre","name":"LA Fitness","osm":"496240419"},"geometry":{"type":"Point","coordinates":[-122.439079,45.510562]}},{"type":"Feature","properties":{"kind":"fitness_centre","name":"24 Hour Fitness","osm":"113758726"},"geometry":{"type":"Point","coordinates":[-122.743794,45.394251]}},{"type":"Feature","properties":{"kind":"dog_park","name":"Portland International Raceway Off Leash Area","osm":"21054683"},"geometry":{"type":"Point","coordinates":[-122.688087,45.598621]}},{"type":"Feature","properties":{"kind":"prison","name":"Columbia River Correctional Institution","osm":"595317531"},"geometry":{"type":"Point","coordinates":[-122.636882,45.589301]}},{"type":"Feature","properties":{"kind":"veterinary","name":"Banfield Pet Hospital","osm":"368562875"},"geometry":{"type":"Point","coordinates":[-122.538878,45.526073]}},{"type":"Feature","properties":{"kind":"cinema","name":"5th Avenue Cinemas","osm":"220741015"},"geometry":{"type":"Point","coordinates":[-122.682591,45.509932]}},{"type":"Feature","properties":{"kind":"dog_park","name":"Mount Tabor Off-Leash Dog Area","osm":"1498686098"},"geometry":{"type":"Point","coordinates":[-122.595053,45.507605]}},{"type":"Feature","properties":{"kind":"dog_park","name":"Dog Park","osm":"1077781601"},"geometry":{"type":"Point","coordinates":[-122.505736,45.514112]}},{"type":"Feature","properties":{"kind":"veterinary","name":"Wilsonville Veterinary Clinic","osm":"298237448"},"geometry":{"type":"Point","coordinates":[-122.772579,45.310547]}},{"type":"Feature","properties":{"kind":"dog_park","name":"Dog Park","osm":"860517804"},"geometry":{"type":"Point","coordinates":[-122.909729,45.497949]}},{"type":"Feature","properties":{"kind":"veterinary","name":"Pacific Veterinary Hospital","osm":"337137298"},"geometry":{"type":"Point","coordinates":[-122.717911,45.455682]}},{"type":"Feature","properties":{"kind":"veterinary","name":"OREV","osm":"307848636"},"geometry":{"type":"Point","coordinates":[-122.710623,45.468989]}},{"type":"Feature","properties":{"kind":"dog_park","name":"Dog Park","osm":"1042088916"},"geometry":{"type":"Point","coordinates":[-122.589232,45.565595]}},{"type":"Feature","properties":{"kind":"dog_park","name":"Dog Park","osm":"1045976015"},"geometry":{"type":"Point","coordinates":[-122.881983,45.528952]}},{"type":"Feature","properties":{"kind":"veterinary","name":"Banfield Pet Hospital","osm":"97797820"},"geometry":{"type":"Point","coordinates":[-122.868586,45.537873]}},{"type":"Feature","properties":{"kind":"veterinary","name":"Banfield Pet Hospital","osm":"1273577501"},"geometry":{"type":"Point","coordinates":[-122.771225,45.301817]}},{"type":"Feature","properties":{"kind":"dog_park","name":"Dog Park","osm":"727916088"},"geometry":{"type":"Point","coordinates":[-122.500444,45.422775]}},{"type":"Feature","properties":{"kind":"cinema","name":"Bridgeport Village Stadium 18 and IMAX","osm":"52982108"},"geometry":{"type":"Point","coordinates":[-122.752166,45.397513]}},{"type":"Feature","properties":{"kind":"dog_park","name":"Dog Park","osm":"978569794"},"geometry":{"type":"Point","coordinates":[-122.898866,45.496189]}},{"type":"Feature","properties":{"kind":"cinema","name":"Regal Cinemas Lloyd Center 10 & IMAX","osm":"39239710"},"geometry":{"type":"Point","coordinates":[-122.650105,45.530965]}},{"type":"Feature","properties":{"kind":"dog_park","name":"Dog Park","osm":"871501303"},"geometry":{"type":"Point","coordinates":[-122.754971,45.303912]}},{"type":"Feature","properties":{"kind":"veterinary","name":"Irvington Veterinary","osm":"409632706"},"geometry":{"type":"Point","coordinates":[-122.650063,45.548084]}},{"type":"Feature","properties":{"kind":"dog_park","name":"Dog Park","osm":"1212433430"},"geometry":{"type":"Point","coordinates":[-122.927359,45.525699]}},{"type":"Feature","properties":{"kind":"veterinary","name":"Portland Animal Clinic","osm":"368336022"},"geometry":{"type":"Point","coordinates":[-122.692064,45.518725]}},{"type":"Feature","properties":{"kind":"veterinary","name":"Accent on Cats","osm":"331412649"},"geometry":{"type":"Point","coordinates":[-122.775271,45.485732]}},{"type":"Feature","properties":{"kind":"veterinary","name":"Veterinary Cancer & Surgery Specialists","osm":"368698209"},"geometry":{"type":"Point","coordinates":[-122.640722,45.447142]}},{"type":"Feature","properties":{"kind":"veterinary","name":"Banfield Pet Hospital","osm":"39273644"},"geometry":{"type":"Point","coordinates":[-122.644974,45.53452]}},{"type":"Feature","properties":{"kind":"dog_park","name":"Off Leash Area","osm":"882595655"},"geometry":{"type":"Point","coordinates":[-122.629057,45.380613]}},{"type":"Feature","properties":{"kind":"veterinary","name":"Rose City Veterinary Hospital","osm":"368063675"},"geometry":{"type":"Point","coordinates":[-122.657353,45.501712]}},{"type":"Feature","properties":{"kind":"cinema","name":"Laurelhurst Theater","osm":"39418400"},"geometry":{"type":"Point","coordinates":[-122.637514,45.523067]}},{"type":"Feature","properties":{"kind":"dog_park","name":"Dog Park","osm":"146690543"},"geometry":{"type":"Point","coordinates":[-122.722482,45.473083]}},{"type":"Feature","properties":{"kind":"dog_park","name":"PCC Rock Creek Dog Park","osm":"471865175"},"geometry":{"type":"Point","coordinates":[-122.856625,45.563627]}},{"type":"Feature","properties":{"kind":"dog_park","name":"Luuwit View Dog Park","osm":"926856800"},"geometry":{"type":"Point","coordinates":[-122.53248,45.548937]}},{"type":"Feature","properties":{"kind":"cinema","name":"Mission Theater","osm":"186052170"},"geometry":{"type":"Point","coordinates":[-122.688165,45.526217]}},{"type":"Feature","properties":{"kind":"veterinary","name":"City Pets Vet","osm":"426968523"},"geometry":{"type":"Point","coordinates":[-122.62882,45.505223]}},{"type":"Feature","properties":{"kind":"dog_park","name":"Dog Park","osm":"1479077722"},"geometry":{"type":"Point","coordinates":[-122.853462,45.427344]}},{"type":"Feature","properties":{"kind":"cinema","name":"Oak Grove 8 Cinemas","osm":"684027173"},"geometry":{"type":"Point","coordinates":[-122.623188,45.407065]}},{"type":"Feature","properties":{"kind":"cinema","name":"Academy Theater","osm":"325447081"},"geometry":{"type":"Point","coordinates":[-122.582596,45.518802]}},{"type":"Feature","properties":{"kind":"cinema","name":"Venetian Theatre","osm":"344364033"},"geometry":{"type":"Point","coordinates":[-122.987649,45.523207]}},{"type":"Feature","properties":{"kind":"fitness_centre","name":"24 Hour Fitness","osm":"580970540"},"geometry":{"type":"Point","coordinates":[-122.599544,45.375372]}},{"type":"Feature","properties":{"kind":"dog_park","name":"Dog Run","osm":"609825374"},"geometry":{"type":"Point","coordinates":[-122.674993,45.509595]}},{"type":"Feature","properties":{"kind":"veterinary","name":"Sunset Animal Clinic","osm":"147954278"},"geometry":{"type":"Point","coordinates":[-122.82913,45.531019]}},{"type":"Feature","properties":{"kind":"dog_park","name":"Dog Park","osm":"387599779"},"geometry":{"type":"Point","coordinates":[-122.909734,45.5526]}},{"type":"Feature","properties":{"kind":"cinema","name":"Tomorrow Theater","osm":"255695811"},"geometry":{"type":"Point","coordinates":[-122.627359,45.50447]}},{"type":"Feature","properties":{"kind":"prison","name":"Coffee Creek Correctional Facility","osm":"434809176"},"geometry":{"type":"Point","coordinates":[-122.791076,45.341784]}},{"type":"Feature","properties":{"kind":"cinema","name":"Regal Movies On TV Stadium 16","osm":"353080614"},"geometry":{"type":"Point","coordinates":[-122.920072,45.497723]}},{"type":"Feature","properties":{"kind":"zoo","name":"Oregon Zoo","osm":"35969760"},"geometry":{"type":"Point","coordinates":[-122.713298,45.509147]}},{"type":"Feature","properties":{"kind":"dog_park","name":"Dog Park","osm":"924704307"},"geometry":{"type":"Point","coordinates":[-122.835169,45.351673]}},{"type":"Feature","properties":{"kind":"veterinary","name":"West Hills Animal Clinic","osm":"295935935"},"geometry":{"type":"Point","coordinates":[-122.721643,45.485961]}},{"type":"Feature","properties":{"kind":"fitness_centre","name":"Planet Fitness","osm":"93292577"},"geometry":{"type":"Point","coordinates":[-122.751784,45.433655]}},{"type":"Feature","properties":{"kind":"veterinary","name":"Lotus Veterinary Clinic","osm":"348351680"},"geometry":{"type":"Point","coordinates":[-122.582192,45.380215]}},{"type":"Feature","properties":{"kind":"cinema","name":"Joy Cinema","osm":"398816256"},"geometry":{"type":"Point","coordinates":[-122.765251,45.433748]}},{"type":"Feature","properties":{"kind":"dog_park","name":"Brentwood Dog Off-Leash Area","osm":"1221939454"},"geometry":{"type":"Point","coordinates":[-122.600398,45.472347]}},{"type":"Feature","properties":{"kind":"fitness_centre","name":"Crunch Fitness","osm":"520440651"},"geometry":{"type":"Point","coordinates":[-122.860532,45.482446]}},{"type":"Feature","properties":{"kind":"dog_park","name":"Dog Park","osm":"1062425486"},"geometry":{"type":"Point","coordinates":[-122.883602,45.543391]}},{"type":"Feature","properties":{"kind":"veterinary","name":"Cornell Vet Clinic","osm":"331176937"},"geometry":{"type":"Point","coordinates":[-122.96312,45.530802]}},{"type":"Feature","properties":{"kind":"veterinary","name":"Two Rivers Veterinary Clinic","osm":"367201969"},"geometry":{"type":"Point","coordinates":[-122.665805,45.550461]}},{"type":"Feature","properties":{"kind":"veterinary","name":"Murrayhill Veterinary Hospital","osm":"482891927"},"geometry":{"type":"Point","coordinates":[-122.82829,45.441046]}},{"type":"Feature","properties":{"kind":"dog_park","name":"Pet Area","osm":"981877307"},"geometry":{"type":"Point","coordinates":[-122.778323,45.451289]}},{"type":"Feature","properties":{"kind":"cinema","name":"Wunderland","osm":"368696249"},"geometry":{"type":"Point","coordinates":[-122.640916,45.442837]}},{"type":"Feature","properties":{"kind":"fitness_centre","name":"Planet Fitness","osm":"578724074"},"geometry":{"type":"Point","coordinates":[-122.474751,45.505742]}},{"type":"Feature","properties":{"kind":"dog_park","name":"Dog Park","osm":"772487587"},"geometry":{"type":"Point","coordinates":[-122.853385,45.510907]}},{"type":"Feature","properties":{"kind":"dog_park","name":"Dog Park","osm":"1521085834"},"geometry":{"type":"Point","coordinates":[-122.568061,45.318356]}},{"type":"Feature","properties":{"kind":"fitness_centre","name":"LA Fitness","osm":"93792017"},"geometry":{"type":"Point","coordinates":[-122.575807,45.492529]}},{"type":"Feature","properties":{"kind":"veterinary","name":"Animal Care Group","osm":"609124252"},"geometry":{"type":"Point","coordinates":[-122.718562,45.413079]}}]}