{"type":"FeatureCollection","features":[{"type":"Feature","id":1,"geometry":{"type":"Point","coordinates":[-122.68281614499995,45.513870490000045]},"properties":{"ObjectID":1}},{"type":"Feature","id":2,"geometry":{"type":"Point","coordinates":[-122.67929071699996,45.51887670800005]},"properties":{"ObjectID":2}},{"type":"Feature","id":3,"geometry":{"type":"Point","coordinates":[-122.68538838399996,45.512282581000079]},"properties":{"ObjectID":3}},{"type":"Feature","id":4,"geometry":{"type":"Point","coordinates":[-122.68132289999994,45.518709400000034]},"properties":{"ObjectID":4}},{"type":"Feature","id":5,"geometry":{"type":"Point","coordinates":[-122.67966379499995,45.525606957000036]},"properties":{"ObjectID":5}},{"type":"Feature","id":6,"geometry":{"type":"Point","coordinates":[-122.68374670399999,45.520951061000062]},"properties":{"ObjectID":6}},{"type":"Feature","id":7,"geometry":{"type":"Point","coordinates":[-122.68303365599996,45.527350016000071]},"properties":{"ObjectID":7}},{"type":"Feature","id":8,"geometry":{"type":"Point","coordinates":[-122.66320391699998,45.513556337000068]},"properties":{"ObjectID":8}},{"type":"Feature","id":9,"geometry":{"type":"Point","coordinates":[-122.65917657999995,45.516648714000041]},"properties":{"ObjectID":9}},{"type":"Feature","id":10,"geometry":{"type":"Point","coordinates":[-122.66097776699996,45.509869305000052]},"properties":{"ObjectID":10}},{"type":"Feature","id":11,"geometry":{"type":"Point","coordinates":[-122.65842296299996,45.508382020000056]},"properties":{"ObjectID":11}},{"type":"Feature","id":12,"geometry":{"type":"Point","coordinates":[-122.65988853899995,45.521404816000029]},"properties":{"ObjectID":12}},{"type":"Feature","id":13,"geometry":{"type":"Point","coordinates":[-122.65842296299996,45.508382020000056]},"properties":{"ObjectID":13}},{"type":"Feature","id":14,"geometry":{"type":"Point","coordinates":[-122.65337294999995,45.512446238000052]},"properties":{"ObjectID":14}},{"type":"Feature","id":15,"geometry":{"type":"Point","coordinates":[-122.65518738099996,45.515453455000056]},"properties":{"ObjectID":15}},{"type":"Feature","id":16,"geometry":{"type":"Point","coordinates":[-122.69871058099994,45.526366735000067]},"properties":{"ObjectID":16}},{"type":"Feature","id":17,"geometry":{"type":"Point","coordinates":[-122.69859449099999,45.533142707000081]},"properties":{"ObjectID":17}},{"type":"Feature","id":18,"geometry":{"type":"Point","coordinates":[-122.66384379099998,45.53497499100007]},"properties":{"ObjectID":18}},{"type":"Feature","id":19,"geometry":{"type":"Point","coordinates":[-122.70015654299999,45.536180351000041]},"properties":{"ObjectID":19}},{"type":"Feature","id":20,"geometry":{"type":"Point","coordinates":[-122.69866012199998,45.534678691000067]},"properties":{"ObjectID":20}},{"type":"Feature","id":21,"geometry":{"type":"Point","coordinates":[-122.637098563,45.52519561500003]},"properties":{"ObjectID":21}},{"type":"Feature","id":22,"geometry":{"type":"Point","coordinates":[-122.64013147099996,45.504591849000064]},"properties":{"ObjectID":22}},{"type":"Feature","id":23,"geometry":{"type":"Point","coordinates":[-122.65366022599994,45.489833128000043]},"properties":{"ObjectID":23}},{"type":"Feature","id":24,"geometry":{"type":"Point","coordinates":[-122.63747750899995,45.504680195000049]},"properties":{"ObjectID":24}},{"type":"Feature","id":25,"geometry":{"type":"Point","coordinates":[-122.67571256599996,45.549780785000053]},"properties":{"ObjectID":25}},{"type":"Feature","id":26,"geometry":{"type":"Point","coordinates":[-122.63546233199997,45.504715608000026]},"properties":{"ObjectID":26}},{"type":"Feature","id":27,"geometry":{"type":"Point","coordinates":[-122.62800746699997,45.505222252000067]},"properties":{"ObjectID":27}},{"type":"Feature","id":28,"geometry":{"type":"Point","coordinates":[-122.63679237199995,45.493232191000061]},"properties":{"ObjectID":28}},{"type":"Feature","id":29,"geometry":{"type":"Point","coordinates":[-122.62520388799999,45.504893179000078]},"properties":{"ObjectID":29}},{"type":"Feature","id":30,"geometry":{"type":"Point","coordinates":[-122.64907236299996,45.47828985600006]},"properties":{"ObjectID":30}},{"type":"Feature","id":31,"geometry":{"type":"Point","coordinates":[-122.62354703699998,45.505010735000042]},"properties":{"ObjectID":31}},{"type":"Feature","id":32,"geometry":{"type":"Point","coordinates":[-122.69923562299999,45.477599732000044]},"properties":{"ObjectID":32}},{"type":"Feature","id":33,"geometry":{"type":"Point","coordinates":[-122.62076231799995,45.536904799000069]},"properties":{"ObjectID":33}},{"type":"Feature","id":34,"geometry":{"type":"Point","coordinates":[-122.64659693599998,45.558986210000057]},"properties":{"ObjectID":34}},{"type":"Feature","id":35,"geometry":{"type":"Point","coordinates":[-122.62466082499998,45.548437333000038]},"properties":{"ObjectID":35}},{"type":"Feature","id":36,"geometry":{"type":"Point","coordinates":[-122.65331897099998,45.467400465000026]},"properties":{"ObjectID":36}},{"type":"Feature","id":37,"geometry":{"type":"Point","coordinates":[-122.71370605699997,45.467654185000072]},"properties":{"ObjectID":37}},{"type":"Feature","id":38,"geometry":{"type":"Point","coordinates":[-122.65475020399998,45.464280005000035]},"properties":{"ObjectID":38}},{"type":"Feature","id":39,"geometry":{"type":"Point","coordinates":[-122.61631278399994,45.54838737700004]},"properties":{"ObjectID":39}},{"type":"Feature","id":40,"geometry":{"type":"Point","coordinates":[-122.61727167399999,45.478983878000065]},"properties":{"ObjectID":40}},{"type":"Feature","id":41,"geometry":{"type":"Point","coordinates":[-122.68177955499999,45.570697573000075]},"properties":{"ObjectID":41}},{"type":"Feature","id":42,"geometry":{"type":"Point","coordinates":[-122.62025252999996,45.555984190000061]},"properties":{"ObjectID":42}},{"type":"Feature","id":43,"geometry":{"type":"Point","coordinates":[-122.70901554399995,45.459745273000067]},"properties":{"ObjectID":43}},{"type":"Feature","id":44,"geometry":{"type":"Point","coordinates":[-122.59173712799998,45.526609600000029]},"properties":{"ObjectID":44}},{"type":"Feature","id":45,"geometry":{"type":"Point","coordinates":[-122.74239781399996,45.587578852000036]},"properties":{"ObjectID":45}},{"type":"Feature","id":46,"geometry":{"type":"Point","coordinates":[-122.74769852999998,45.58926122500003]},"properties":{"ObjectID":46}},{"type":"Feature","id":47,"geometry":{"type":"Point","coordinates":[-122.79927791199998,45.488999749000072]},"properties":{"ObjectID":47}},{"type":"Feature","id":48,"geometry":{"type":"Point","coordinates":[-122.75452911099995,45.590265419000048]},"properties":{"ObjectID":48}},{"type":"Feature","id":49,"geometry":{"type":"Point","coordinates":[-122.67012837499999,45.420283315000063]},"properties":{"ObjectID":49}},{"type":"Feature","id":50,"geometry":{"type":"Point","coordinates":[-122.66927635399998,45.42037861700004]},"properties":{"ObjectID":50}}]}