{"type":"FeatureCollection","features":[{"type":"Feature","properties":{"s":"i-5","t":0},"geometry":{"type":"Point","coordinates":[-122.769315,45.291808]}},{"type":"Feature","properties":{"s":"i-5","t":0},"geometry":{"type":"Point","coordinates":[-122.74405,45.436938]}},{"type":"Feature","properties":{"s":"i-5","t":0},"geometry":{"type":"Point","coordinates":[-122.678762,45.574744]}},{"type":"Feature","properties":{"s":"i-5","t":1},"geometry":{"type":"Point","coordinates":[-122.759713,45.364063]}},{"type":"Feature","properties":{"s":"i-5","t":1},"geometry":{"type":"Point","coordinates":[-122.674799,45.490533]}},{"type":"Feature","properties":{"s":"i-5","t":2},"geometry":{"type":"Point","coordinates":[-122.74595,45.398979]}},{"type":"Feature","properties":{"s":"i-5","t":2},"geometry":{"type":"Point","coordinates":[-122.70425,45.460538]}},{"type":"Feature","properties":{"s":"i-5","t":2},"geometry":{"type":"Point","coordinates":[-122.665245,45.526956]}},{"type":"Feature","properties":{"s":"i-5","t":2},"geometry":{"type":"Point","coordinates":[-122.678737,45.611974]}},{"type":"Feature","properties":{"s":"i-5","t":3},"geometry":{"type":"Point","coordinates":[-122.769068,45.310237]}},{"type":"Feature","properties":{"s":"i-5","t":3},"geometry":{"type":"Point","coordinates":[-122.769143,45.328784]}},{"type":"Feature","properties":{"s":"i-5","t":3},"geometry":{"type":"Point","coordinates":[-122.744177,45.417094]}},{"type":"Feature","properties":{"s":"i-5","t":3},"geometry":{"type":"Point","coordinates":[-122.728034,45.451417]}},{"type":"Feature","properties":{"s":"i-5","t":3},"geometry":{"type":"Point","coordinates":[-122.680333,45.46953]}},{"type":"Feature","properties":{"s":"i-5","t":3},"geometry":{"type":"Point","coordinates":[-122.668843,45.508135]}},{"type":"Feature","properties":{"s":"i-5","t":3},"geometry":{"type":"Point","coordinates":[-122.675147,45.543706]}},{"type":"Feature","properties":{"s":"i-5","t":3},"geometry":{"type":"Point","coordinates":[-122.683283,45.593016]}},{"type":"Feature","properties":{"s":"i-5","t":4},"geometry":{"type":"Point","coordinates":[-122.769503,45.300895]}},{"type":"Feature","properties":{"s":"i-5","t":4},"geometry":{"type":"Point","coordinates":[-122.769079,45.319482]}},{"type":"Feature","properties":{"s":"i-5","t":4},"geometry":{"type":"Point","coordinates":[-122.769007,45.338433]}},{"type":"Feature","properties":{"s":"i-5","t":4},"geometry":{"type":"Point","coordinates":[-122.766735,45.347782]}},{"type":"Feature","properties":{"s":"i-5","t":4},"geometry":{"type":"Point","coordinates":[-122.755837,45.373538]}},{"type":"Feature","properties":{"s":"i-5","t":4},"geometry":{"type":"Point","coordinates":[-122.752718,45.382701]}},{"type":"Feature","properties":{"s":"i-5","t":4},"geometry":{"type":"Point","coordinates":[-122.743955,45.407942]}},{"type":"Feature","properties":{"s":"i-5","t":4},"geometry":{"type":"Point","coordinates":[-122.744258,45.426415]}},{"type":"Feature","properties":{"s":"i-5","t":4},"geometry":{"type":"Point","coordinates":[-122.737445,45.444695]}},{"type":"Feature","properties":{"s":"i-5","t":4},"geometry":{"type":"Point","coordinates":[-122.715824,45.454258]}},{"type":"Feature","properties":{"s":"i-5","t":4},"geometry":{"type":"Point","coordinates":[-122.694019,45.466224]}},{"type":"Feature","properties":{"s":"i-5","t":4},"geometry":{"type":"Point","coordinates":[-122.679004,45.479578]}},{"type":"Feature","properties":{"s":"i-5","t":4},"geometry":{"type":"Point","coordinates":[-122.667207,45.517118]}},{"type":"Feature","properties":{"s":"i-5","t":4},"geometry":{"type":"Point","coordinates":[-122.667737,45.536016]}},{"type":"Feature","properties":{"s":"i-5","t":4},"geometry":{"type":"Point","coordinates":[-122.678545,45.552543]}},{"type":"Feature","properties":{"s":"i-5","t":4},"geometry":{"type":"Point","coordinates":[-122.678692,45.561606]}},{"type":"Feature","properties":{"s":"i-5","t":4},"geometry":{"type":"Point","coordinates":[-122.679142,45.583812]}},{"type":"Feature","properties":{"s":"i-5","t":4},"geometry":{"type":"Point","coordinates":[-122.683357,45.602529]}},{"type":"Feature","properties":{"s":"i-205","t":0},"geometry":{"type":"Point","coordinates":[-122.650862,45.34732]}},{"type":"Feature","properties":{"s":"i-205","t":0},"geometry":{"type":"Point","coordinates":[-122.565602,45.478989]}},{"type":"Feature","properties":{"s":"i-205","t":1},"geometry":{"type":"Point","coordinates":[-122.74802,45.371104]}},{"type":"Feature","properties":{"s":"i-205","t":1},"geometry":{"type":"Point","coordinates":[-122.5745,45.396125]}},{"type":"Feature","properties":{"s":"i-205","t":1},"geometry":{"type":"Point","coordinates":[-122.564287,45.551568]}},{"type":"Feature","properties":{"s":"i-205","t":2},"geometry":{"type":"Point","coordinates":[-122.604082,45.364418]}},{"type":"Feature","properties":{"s":"i-205","t":2},"geometry":{"type":"Point","coordinates":[-122.694613,45.367212]}},{"type":"Feature","properties":{"s":"i-205","t":2},"geometry":{"type":"Point","coordinates":[-122.566109,45.432156]}},{"type":"Feature","properties":{"s":"i-205","t":2},"geometry":{"type":"Point","coordinates":[-122.544065,45.585411]}},{"type":"Feature","properties":{"s":"i-205","t":3},"geometry":{"type":"Point","coordinates":[-122.625804,45.352401]}},{"type":"Feature","properties":{"s":"i-205","t":3},"geometry":{"type":"Point","coordinates":[-122.668776,45.360343]}},{"type":"Feature","properties":{"s":"i-205","t":3},"geometry":{"type":"Point","coordinates":[-122.719992,45.372828]}},{"type":"Feature","properties":{"s":"i-205","t":3},"geometry":{"type":"Point","coordinates":[-122.5846,45.376566]}},{"type":"Feature","properties":{"s":"i-205","t":3},"geometry":{"type":"Point","coordinates":[-122.57348,45.414257]}},{"type":"Feature","properties":{"s":"i-205","t":3},"geometry":{"type":"Point","coordinates":[-122.572088,45.451384]}},{"type":"Feature","properties":{"s":"i-205","t":3},"geometry":{"type":"Point","coordinates":[-122.565255,45.497337]}},{"type":"Feature","properties":{"s":"i-205","t":3},"geometry":{"type":"Point","coordinates":[-122.56561,45.516561]}},{"type":"Feature","properties":{"s":"i-205","t":4},"geometry":{"type":"Point","coordinates":[-122.661797,45.352321]}},{"type":"Feature","properties":{"s":"i-205","t":4},"geometry":{"type":"Point","coordinates":[-122.616107,45.358561]}},{"type":"Feature","properties":{"s":"i-205","t":4},"geometry":{"type":"Point","coordinates":[-122.679914,45.365618]}},{"type":"Feature","properties":{"s":"i-205","t":4},"geometry":{"type":"Point","coordinates":[-122.593376,45.369479]}},{"type":"Feature","properties":{"s":"i-205","t":4},"geometry":{"type":"Point","coordinates":[-122.707321,45.370268]}},{"type":"Feature","properties":{"s":"i-205","t":4},"geometry":{"type":"Point","coordinates":[-122.734827,45.373272]}},{"type":"Feature","properties":{"s":"i-205","t":4},"geometry":{"type":"Point","coordinates":[-122.5788,45.384731]}},{"type":"Feature","properties":{"s":"i-205","t":4},"geometry":{"type":"Point","coordinates":[-122.56944,45.441812]}},{"type":"Feature","properties":{"s":"i-205","t":4},"geometry":{"type":"Point","coordinates":[-122.571863,45.460526]}},{"type":"Feature","properties":{"s":"i-205","t":4},"geometry":{"type":"Point","coordinates":[-122.565805,45.468955]}},{"type":"Feature","properties":{"s":"i-205","t":4},"geometry":{"type":"Point","coordinates":[-122.565515,45.507318]}},{"type":"Feature","properties":{"s":"i-205","t":4},"geometry":{"type":"Point","coordinates":[-122.565117,45.526325]}},{"type":"Feature","properties":{"s":"i-205","t":4},"geometry":{"type":"Point","coordinates":[-122.563813,45.535695]}},{"type":"Feature","properties":{"s":"i-205","t":4},"geometry":{"type":"Point","coordinates":[-122.563148,45.560657]}},{"type":"Feature","properties":{"s":"i-205","t":4},"geometry":{"type":"Point","coordinates":[-122.553091,45.568738]}},{"type":"Feature","properties":{"s":"i-205","t":4},"geometry":{"type":"Point","coordinates":[-122.54906,45.593903]}},{"type":"Feature","properties":{"s":"i-84","t":0},"geometry":{"type":"Point","coordinates":[-122.661711,45.525273]}},{"type":"Feature","properties":{"s":"i-84","t":0},"geometry":{"type":"Point","coordinates":[-122.456665,45.53987]}},{"type":"Feature","properties":{"s":"i-84","t":1},"geometry":{"type":"Point","coordinates":[-122.560392,45.536702]}},{"type":"Feature","properties":{"s":"i-84","t":1},"geometry":{"type":"Point","coordinates":[-122.353642,45.542649]}},{"type":"Feature","properties":{"s":"i-84","t":2},"geometry":{"type":"Point","coordinates":[-122.610521,45.527686]}},{"type":"Feature","properties":{"s":"i-84","t":2},"geometry":{"type":"Point","coordinates":[-122.509522,45.542523]}},{"type":"Feature","properties":{"s":"i-84","t":2},"geometry":{"type":"Point","coordinates":[-122.405633,45.544264]}},{"type":"Feature","properties":{"s":"i-84","t":3},"geometry":{"type":"Point","coordinates":[-122.636762,45.530304]}},{"type":"Feature","properties":{"s":"i-84","t":3},"geometry":{"type":"Point","coordinates":[-122.587194,45.535701]}},{"type":"Feature","properties":{"s":"i-84","t":3},"geometry":{"type":"Point","coordinates":[-122.538795,45.546616]}},{"type":"Feature","properties":{"s":"i-84","t":3},"geometry":{"type":"Point","coordinates":[-122.482672,45.542381]}},{"type":"Feature","properties":{"s":"i-84","t":4},"geometry":{"type":"Point","coordinates":[-122.64956,45.529438]}},{"type":"Feature","properties":{"s":"i-84","t":4},"geometry":{"type":"Point","coordinates":[-122.622958,45.533056]}},{"type":"Feature","properties":{"s":"i-84","t":4},"geometry":{"type":"Point","coordinates":[-122.574951,45.531967]}},{"type":"Feature","properties":{"s":"i-84","t":4},"geometry":{"type":"Point","coordinates":[-122.557816,45.545603]}},{"type":"Feature","properties":{"s":"i-84","t":4},"geometry":{"type":"Point","coordinates":[-122.524925,45.544282]}},{"type":"Feature","properties":{"s":"i-84","t":4},"geometry":{"type":"Point","coordinates":[-122.496369,45.542409]}},{"type":"Feature","properties":{"s":"i-84","t":4},"geometry":{"type":"Point","coordinates":[-122.469665,45.540975]}},{"type":"Feature","properties":{"s":"i-84","t":4},"geometry":{"type":"Point","coordinates":[-122.443729,45.539615]}},{"type":"Feature","properties":{"s":"i-84","t":4},"geometry":{"type":"Point","coordinates":[-122.430655,45.541639]}},{"type":"Feature","properties":{"s":"i-84","t":4},"geometry":{"type":"Point","coordinates":[-122.417727,45.539872]}},{"type":"Feature","properties":{"s":"i-84","t":4},"geometry":{"type":"Point","coordinates":[-122.390957,45.545181]}},{"type":"Feature","properties":{"s":"i-84","t":4},"geometry":{"type":"Point","coordinates":[-122.37795,45.544105]}},{"type":"Feature","properties":{"s":"i-84","t":4},"geometry":{"type":"Point","coordinates":[-122.340438,45.541247]}},{"type":"Feature","properties":{"s":"i-405","t":0},"geometry":{"type":"Point","coordinates":[-122.679199,45.505431]}},{"type":"Feature","properties":{"s":"i-405","t":2},"geometry":{"type":"Point","coordinates":[-122.678396,45.541669]}},{"type":"Feature","properties":{"s":"i-405","t":3},"geometry":{"type":"Point","coordinates":[-122.686073,45.522895]}},{"type":"Feature","properties":{"s":"i-405","t":4},"geometry":{"type":"Point","coordinates":[-122.689024,45.511685]}},{"type":"Feature","properties":{"s":"i-405","t":4},"geometry":{"type":"Point","coordinates":[-122.687171,45.532147]}},{"type":"Feature","properties":{"s":"us-26","t":0},"geometry":{"type":"Point","coordinates":[-122.949828,45.572762]}},{"type":"Feature","properties":{"s":"us-26","t":0},"geometry":{"type":"Point","coordinates":[-122.767084,45.505948]}},{"type":"Feature","properties":{"s":"us-26","t":0},"geometry":{"type":"Point","coordinates":[-122.56167,45.496423]}},{"type":"Feature","properties":{"s":"us-26","t":0},"geometry":{"type":"Point","coordinates":[-122.367665,45.449077]}},{"type":"Feature","properties":{"s":"us-26","t":1},"geometry":{"type":"Point","coordinates":[-122.859115,45.538821]}},{"type":"Feature","properties":{"s":"us-26","t":2},"geometry":{"type":"Point","coordinates":[-122.813782,45.521427]}},{"type":"Feature","properties":{"s":"us-26","t":2},"geometry":{"type":"Point","coordinates":[-122.715658,45.506443]}},{"type":"Feature","properties":{"s":"us-26","t":2},"geometry":{"type":"Point","coordinates":[-122.660657,45.501538]}},{"type":"Feature","properties":{"s":"us-26","t":2},"geometry":{"type":"Point","coordinates":[-122.510271,45.497965]}},{"type":"Feature","properties":{"s":"us-26","t":2},"geometry":{"type":"Point","coordinates":[-122.405556,45.493691]}},{"type":"Feature","properties":{"s":"us-26","t":3},"geometry":{"type":"Point","coordinates":[-122.92645,45.563949]}},{"type":"Feature","properties":{"s":"us-26","t":3},"geometry":{"type":"Point","coordinates":[-122.902963,45.555092]}},{"type":"Feature","properties":{"s":"us-26","t":3},"geometry":{"type":"Point","coordinates":[-122.836634,45.530074]}},{"type":"Feature","properties":{"s":"us-26","t":3},"geometry":{"type":"Point","coordinates":[-122.741648,45.508336]}},{"type":"Feature","properties":{"s":"us-26","t":3},"geometry":{"type":"Point","coordinates":[-122.693182,45.515254]}},{"type":"Feature","properties":{"s":"us-26","t":3},"geometry":{"type":"Point","coordinates":[-122.635574,45.49732]}},{"type":"Feature","properties":{"s":"us-26","t":3},"geometry":{"type":"Point","coordinates":[-122.609064,45.497492]}},{"type":"Feature","properties":{"s":"us-26","t":3},"geometry":{"type":"Point","coordinates":[-122.535948,45.497138]}},{"type":"Feature","properties":{"s":"us-26","t":3},"geometry":{"type":"Point","coordinates":[-122.484687,45.492314]}},{"type":"Feature","properties":{"s":"us-26","t":3},"geometry":{"type":"Point","coordinates":[-122.397384,45.474065]}},{"type":"Feature","properties":{"s":"us-26","t":3},"geometry":{"type":"Point","coordinates":[-122.348321,45.435901]}},{"type":"Feature","properties":{"s":"us-26","t":4},"geometry":{"type":"Point","coordinates":[-122.938141,45.568352]}},{"type":"Feature","properties":{"s":"us-26","t":4},"geometry":{"type":"Point","coordinates":[-122.914484,45.5597]}},{"type":"Feature","properties":{"s":"us-26","t":4},"geometry":{"type":"Point","coordinates":[-122.891326,45.550715]}},{"type":"Feature","properties":{"s":"us-26","t":4},"geometry":{"type":"Point","coordinates":[-122.878538,45.545892]}},{"type":"Feature","properties":{"s":"us-26","t":4},"geometry":{"type":"Point","coordinates":[-122.802004,45.517155]}},{"type":"Feature","properties":{"s":"us-26","t":4},"geometry":{"type":"Point","coordinates":[-122.790385,45.512852]}},{"type":"Feature","properties":{"s":"us-26","t":4},"geometry":{"type":"Point","coordinates":[-122.728741,45.509335]}},{"type":"Feature","properties":{"s":"us-26","t":4},"geometry":{"type":"Point","coordinates":[-122.648044,45.49992]}},{"type":"Feature","properties":{"s":"us-26","t":4},"geometry":{"type":"Point","coordinates":[-122.622616,45.497341]}},{"type":"Feature","properties":{"s":"us-26","t":4},"geometry":{"type":"Point","coordinates":[-122.595658,45.497457]}},{"type":"Feature","properties":{"s":"us-26","t":4},"geometry":{"type":"Point","coordinates":[-122.58257,45.497422]}},{"type":"Feature","properties":{"s":"us-26","t":4},"geometry":{"type":"Point","coordinates":[-122.399151,45.485282]}},{"type":"Feature","properties":{"s":"us-26","t":4},"geometry":{"type":"Point","coordinates":[-122.388306,45.465887]}},{"type":"Feature","properties":{"s":"us-26","t":4},"geometry":{"type":"Point","coordinates":[-122.380283,45.458661]}},{"type":"Feature","properties":{"s":"us-30","t":0},"geometry":{"type":"Point","coordinates":[-122.690691,45.535092]}},{"type":"Feature","properties":{"s":"us-30","t":1},"geometry":{"type":"Point","coordinates":[-122.768047,45.583548]}},{"type":"Feature","properties":{"s":"us-30","t":2},"geometry":{"type":"Point","coordinates":[-122.733618,45.555146]}},{"type":"Feature","properties":{"s":"us-30","t":2},"geometry":{"type":"Point","coordinates":[-122.798499,45.612719]}},{"type":"Feature","properties":{"s":"us-30","t":3},"geometry":{"type":"Point","coordinates":[-122.715861,45.538609]}},{"type":"Feature","properties":{"s":"us-30","t":3},"geometry":{"type":"Point","coordinates":[-122.752413,45.568189]}},{"type":"Feature","properties":{"s":"us-30","t":4},"geometry":{"type":"Point","coordinates":[-122.699679,45.541897]}},{"type":"Feature","properties":{"s":"us-30","t":4},"geometry":{"type":"Point","coordinates":[-122.723557,45.545954]}},{"type":"Feature","properties":{"s":"us-30","t":4},"geometry":{"type":"Point","coordinates":[-122.760419,45.576135]}},{"type":"Feature","properties":{"s":"us-30","t":4},"geometry":{"type":"Point","coordinates":[-122.777472,45.589711]}},{"type":"Feature","properties":{"s":"us-30","t":4},"geometry":{"type":"Point","coordinates":[-122.785091,45.597708]}},{"type":"Feature","properties":{"s":"or-217","t":0},"geometry":{"type":"Point","coordinates":[-122.741986,45.420286]}},{"type":"Feature","properties":{"s":"or-217","t":1},"geometry":{"type":"Point","coordinates":[-122.792977,45.483291]}},{"type":"Feature","properties":{"s":"or-217","t":2},"geometry":{"type":"Point","coordinates":[-122.780158,45.444846]}},{"type":"Feature","properties":{"s":"or-217","t":3},"geometry":{"type":"Point","coordinates":[-122.786029,45.463014]}},{"type":"Feature","properties":{"s":"or-217","t":3},"geometry":{"type":"Point","coordinates":[-122.788233,45.501105]}},{"type":"Feature","properties":{"s":"or-217","t":4},"geometry":{"type":"Point","coordinates":[-122.751638,45.426255]}},{"type":"Feature","properties":{"s":"or-217","t":4},"geometry":{"type":"Point","coordinates":[-122.760654,45.433863]}},{"type":"Feature","properties":{"s":"or-217","t":4},"geometry":{"type":"Point","coordinates":[-122.784626,45.453473]}},{"type":"Feature","properties":{"s":"or-217","t":4},"geometry":{"type":"Point","coordinates":[-122.786313,45.472213]}},{"type":"Feature","properties":{"s":"or-217","t":4},"geometry":{"type":"Point","coordinates":[-122.778372,45.508212]}},{"type":"Feature","properties":{"s":"or-213","t":0},"geometry":{"type":"Point","coordinates":[-122.570225,45.311444]}},{"type":"Feature","properties":{"s":"or-213","t":2},"geometry":{"type":"Point","coordinates":[-122.578225,45.34752]}},{"type":"Feature","properties":{"s":"or-213","t":3},"geometry":{"type":"Point","coordinates":[-122.576843,45.32893]}},{"type":"Feature","properties":{"s":"or-213","t":3},"geometry":{"type":"Point","coordinates":[-122.584667,45.365085]}},{"type":"Feature","properties":{"s":"or-213","t":4},"geometry":{"type":"Point","coordinates":[-122.57696,45.319817]}},{"type":"Feature","properties":{"s":"or-213","t":4},"geometry":{"type":"Point","coordinates":[-122.573405,45.337685]}},{"type":"Feature","properties":{"s":"or-213","t":4},"geometry":{"type":"Point","coordinates":[-122.586803,45.374136]}},{"type":"Feature","properties":{"s":"or-212","t":0},"geometry":{"type":"Point","coordinates":[-122.573237,45.407489]}},{"type":"Feature","properties":{"s":"or-212","t":0},"geometry":{"type":"Point","coordinates":[-122.369104,45.432574]}},{"type":"Feature","properties":{"s":"or-212","t":1},"geometry":{"type":"Point","coordinates":[-122.470759,45.413372]}},{"type":"Feature","properties":{"s":"or-212","t":2},"geometry":{"type":"Point","coordinates":[-122.418844,45.418009]}},{"type":"Feature","properties":{"s":"or-212","t":3},"geometry":{"type":"Point","coordinates":[-122.546308,45.407864]}},{"type":"Feature","properties":{"s":"or-212","t":3},"geometry":{"type":"Point","coordinates":[-122.519999,45.410247]}},{"type":"Feature","properties":{"s":"or-212","t":3},"geometry":{"type":"Point","coordinates":[-122.393138,45.423062]}},{"type":"Feature","properties":{"s":"or-212","t":3},"geometry":{"type":"Point","coordinates":[-122.343168,45.432668]}},{"type":"Feature","properties":{"s":"or-212","t":4},"geometry":{"type":"Point","coordinates":[-122.559883,45.407686]}},{"type":"Feature","properties":{"s":"or-212","t":4},"geometry":{"type":"Point","coordinates":[-122.506938,45.409692]}},{"type":"Feature","properties":{"s":"or-212","t":4},"geometry":{"type":"Point","coordinates":[-122.494016,45.410337]}},{"type":"Feature","properties":{"s":"or-212","t":4},"geometry":{"type":"Point","coordinates":[-122.459185,45.41738]}},{"type":"Feature","properties":{"s":"or-212","t":4},"geometry":{"type":"Point","coordinates":[-122.4462,45.417704]}},{"type":"Feature","properties":{"s":"or-212","t":4},"geometry":{"type":"Point","coordinates":[-122.4326,45.417872]}},{"type":"Feature","properties":{"s":"or-212","t":4},"geometry":{"type":"Point","coordinates":[-122.381803,45.427711]}},{"type":"Feature","properties":{"s":"or-224","t":0},"geometry":{"type":"Point","coordinates":[-122.644454,45.449807]}},{"type":"Feature","properties":{"s":"or-224","t":1},"geometry":{"type":"Point","coordinates":[-122.555304,45.413936]}},{"type":"Feature","properties":{"s":"or-224","t":2},"geometry":{"type":"Point","coordinates":[-122.504545,45.408761]}},{"type":"Feature","properties":{"s":"or-224","t":3},"geometry":{"type":"Point","coordinates":[-122.624069,45.438453]}},{"type":"Feature","properties":{"s":"or-224","t":3},"geometry":{"type":"Point","coordinates":[-122.602095,45.428158]}},{"type":"Feature","properties":{"s":"or-224","t":4},"geometry":{"type":"Point","coordinates":[-122.632347,45.446546]}},{"type":"Feature","properties":{"s":"or-224","t":4},"geometry":{"type":"Point","coordinates":[-122.613281,45.432961]}},{"type":"Feature","properties":{"s":"or-224","t":4},"geometry":{"type":"Point","coordinates":[-122.590064,45.424181]}},{"type":"Feature","properties":{"s":"or-224","t":4},"geometry":{"type":"Point","coordinates":[-122.577609,45.422012]}},{"type":"Feature","properties":{"s":"or-224","t":4},"geometry":{"type":"Point","coordinates":[-122.542302,45.411045]}},{"type":"Feature","properties":{"s":"or-224","t":4},"geometry":{"type":"Point","coordinates":[-122.499959,45.399961]}},{"type":"Feature","properties":{"s":"or-99E","t":0},"geometry":{"type":"Point","coordinates":[-122.65843,45.317344]}},{"type":"Feature","properties":{"s":"or-99E","t":0},"geometry":{"type":"Point","coordinates":[-122.638941,45.461484]}},{"type":"Feature","properties":{"s":"or-99E","t":1},"geometry":{"type":"Point","coordinates":[-122.603009,45.378329]}},{"type":"Feature","properties":{"s":"or-99E","t":2},"geometry":{"type":"Point","coordinates":[-122.626997,45.345949]}},{"type":"Feature","properties":{"s":"or-99E","t":2},"geometry":{"type":"Point","coordinates":[-122.628547,45.411648]}},{"type":"Feature","properties":{"s":"or-99E","t":2},"geometry":{"type":"Point","coordinates":[-122.658126,45.495326]}},{"type":"Feature","properties":{"s":"or-99E","t":3},"geometry":{"type":"Point","coordinates":[-122.649594,45.334624]}},{"type":"Feature","properties":{"s":"or-99E","t":3},"geometry":{"type":"Point","coordinates":[-122.608539,45.358711]}},{"type":"Feature","properties":{"s":"or-99E","t":3},"geometry":{"type":"Point","coordinates":[-122.615882,45.395071]}},{"type":"Feature","properties":{"s":"or-99E","t":3},"geometry":{"type":"Point","coordinates":[-122.634668,45.430197]}},{"type":"Feature","properties":{"s":"or-99E","t":3},"geometry":{"type":"Point","coordinates":[-122.641805,45.479895]}},{"type":"Feature","properties":{"s":"or-99E","t":4},"geometry":{"type":"Point","coordinates":[-122.657114,45.326604]}},{"type":"Feature","properties":{"s":"or-99E","t":4},"geometry":{"type":"Point","coordinates":[-122.638294,45.340499]}},{"type":"Feature","properties":{"s":"or-99E","t":4},"geometry":{"type":"Point","coordinates":[-122.615825,45.350482]}},{"type":"Feature","properties":{"s":"or-99E","t":4},"geometry":{"type":"Point","coordinates":[-122.600858,45.366252]}},{"type":"Feature","properties":{"s":"or-99E","t":4},"geometry":{"type":"Point","coordinates":[-122.609508,45.386818]}},{"type":"Feature","properties":{"s":"or-99E","t":4},"geometry":{"type":"Point","coordinates":[-122.622239,45.403421]}},{"type":"Feature","properties":{"s":"or-99E","t":4},"geometry":{"type":"Point","coordinates":[-122.640681,45.438339]}},{"type":"Feature","properties":{"s":"or-99E","t":4},"geometry":{"type":"Point","coordinates":[-122.642588,45.447616]}},{"type":"Feature","properties":{"s":"or-99E","t":4},"geometry":{"type":"Point","coordinates":[-122.639699,45.470872]}},{"type":"Feature","properties":{"s":"or-99E","t":4},"geometry":{"type":"Point","coordinates":[-122.650044,45.487028]}},{"type":"Feature","properties":{"s":"or-99W","t":0},"geometry":{"type":"Point","coordinates":[-122.867877,45.352807]}},{"type":"Feature","properties":{"s":"or-99W","t":0},"geometry":{"type":"Point","coordinates":[-122.720779,45.453722]}},{"type":"Feature","properties":{"s":"or-99W","t":1},"geometry":{"type":"Point","coordinates":[-122.796738,45.40499]}},{"type":"Feature","properties":{"s":"or-99W","t":2},"geometry":{"type":"Point","coordinates":[-122.764872,45.434034]}},{"type":"Feature","properties":{"s":"or-99W","t":2},"geometry":{"type":"Point","coordinates":[-122.679531,45.475881]}},{"type":"Feature","properties":{"s":"or-99W","t":3},"geometry":{"type":"Point","coordinates":[-122.849246,45.366101]}},{"type":"Feature","properties":{"s":"or-99W","t":3},"geometry":{"type":"Point","coordinates":[-122.826026,45.382067]}},{"type":"Feature","properties":{"s":"or-99W","t":3},"geometry":{"type":"Point","coordinates":[-122.784917,45.42114]}},{"type":"Feature","properties":{"s":"or-99W","t":3},"geometry":{"type":"Point","coordinates":[-122.74234,45.443128]}},{"type":"Feature","properties":{"s":"or-99W","t":3},"geometry":{"type":"Point","coordinates":[-122.67811,45.495837]}},{"type":"Feature","properties":{"s":"or-99W","t":4},"geometry":{"type":"Point","coordinates":[-122.858613,45.359347]}},{"type":"Feature","properties":{"s":"or-99W","t":4},"geometry":{"type":"Point","coordinates":[-122.839237,45.372732]}},{"type":"Feature","properties":{"s":"or-99W","t":4},"geometry":{"type":"Point","coordinates":[-122.813223,45.385474]}},{"type":"Feature","properties":{"s":"or-99W","t":4},"geometry":{"type":"Point","coordinates":[-122.802604,45.390707]}},{"type":"Feature","properties":{"s":"or-99W","t":4},"geometry":{"type":"Point","coordinates":[-122.792238,45.413459]}},{"type":"Feature","properties":{"s":"or-99W","t":4},"geometry":{"type":"Point","coordinates":[-122.775602,45.428797]}},{"type":"Feature","properties":{"s":"or-99W","t":4},"geometry":{"type":"Point","coordinates":[-122.753669,45.438618]}},{"type":"Feature","properties":{"s":"or-99W","t":4},"geometry":{"type":"Point","coordinates":[-122.730274,45.446346]}},{"type":"Feature","properties":{"s":"or-99W","t":4},"geometry":{"type":"Point","coordinates":[-122.708514,45.459466]}},{"type":"Feature","properties":{"s":"or-99W","t":4},"geometry":{"type":"Point","coordinates":[-122.697941,45.465546]}},{"type":"Feature","properties":{"s":"or-99W","t":4},"geometry":{"type":"Point","coordinates":[-122.681888,45.485155]}},{"type":"Feature","properties":{"s":"or-99W","t":4},"geometry":{"type":"Point","coordinates":[-122.682031,45.505131]}},{"type":"Feature","properties":{"s":"or-8","t":0},"geometry":{"type":"Point","coordinates":[-123.029704,45.52004]}},{"type":"Feature","properties":{"s":"or-8","t":0},"geometry":{"type":"Point","coordinates":[-122.828918,45.489876]}},{"type":"Feature","properties":{"s":"or-8","t":1},"geometry":{"type":"Point","coordinates":[-122.930905,45.500456]}},{"type":"Feature","properties":{"s":"or-8","t":1},"geometry":{"type":"Point","coordinates":[-122.718732,45.507668]}},{"type":"Feature","properties":{"s":"or-8","t":2},"geometry":{"type":"Point","coordinates":[-122.880171,45.495194]}},{"type":"Feature","properties":{"s":"or-8","t":2},"geometry":{"type":"Point","coordinates":[-122.776964,45.493819]}},{"type":"Feature","properties":{"s":"or-8","t":3},"geometry":{"type":"Point","coordinates":[-122.974024,45.513589]}},{"type":"Feature","properties":{"s":"or-8","t":3},"geometry":{"type":"Point","coordinates":[-122.854656,45.492563]}},{"type":"Feature","properties":{"s":"or-8","t":3},"geometry":{"type":"Point","coordinates":[-122.80318,45.488568]}},{"type":"Feature","properties":{"s":"or-8","t":3},"geometry":{"type":"Point","coordinates":[-122.753058,45.500958]}},{"type":"Feature","properties":{"s":"or-8","t":3},"geometry":{"type":"Point","coordinates":[-122.699151,45.519393]}},{"type":"Feature","properties":{"s":"or-8","t":4},"geometry":{"type":"Point","coordinates":[-123.016655,45.519997]}},{"type":"Feature","properties":{"s":"or-8","t":4},"geometry":{"type":"Point","coordinates":[-122.961104,45.506752]}},{"type":"Feature","properties":{"s":"or-8","t":4},"geometry":{"type":"Point","coordinates":[-122.949746,45.502441]}},{"type":"Feature","properties":{"s":"or-8","t":4},"geometry":{"type":"Point","coordinates":[-122.917381,45.499075]}},{"type":"Feature","properties":{"s":"or-8","t":4},"geometry":{"type":"Point","coordinates":[-122.902052,45.497491]}},{"type":"Feature","properties":{"s":"or-8","t":4},"geometry":{"type":"Point","coordinates":[-122.867361,45.494114]}},{"type":"Feature","properties":{"s":"or-8","t":4},"geometry":{"type":"Point","coordinates":[-122.7899,45.491239]}},{"type":"Feature","properties":{"s":"or-8","t":4},"geometry":{"type":"Point","coordinates":[-122.765771,45.498266]}},{"type":"Feature","properties":{"s":"or-10","t":0},"geometry":{"type":"Point","coordinates":[-122.906906,45.453161]}},{"type":"Feature","properties":{"s":"or-10","t":0},"geometry":{"type":"Point","coordinates":[-122.705001,45.480551]}},{"type":"Feature","properties":{"s":"or-10","t":1},"geometry":{"type":"Point","coordinates":[-122.815972,45.487196]}},{"type":"Feature","properties":{"s":"or-10","t":2},"geometry":{"type":"Point","coordinates":[-122.865298,45.476291]}},{"type":"Feature","properties":{"s":"or-10","t":2},"geometry":{"type":"Point","coordinates":[-122.764051,45.486299]}},{"type":"Feature","properties":{"s":"or-10","t":3},"geometry":{"type":"Point","coordinates":[-122.891125,45.467505]}},{"type":"Feature","properties":{"s":"or-10","t":3},"geometry":{"type":"Point","coordinates":[-122.841944,45.483916]}},{"type":"Feature","properties":{"s":"or-10","t":3},"geometry":{"type":"Point","coordinates":[-122.790097,45.486543]}},{"type":"Feature","properties":{"s":"or-10","t":3},"geometry":{"type":"Point","coordinates":[-122.737977,45.487053]}},{"type":"Feature","properties":{"s":"or-10","t":4},"geometry":{"type":"Point","coordinates":[-122.878926,45.470735]}},{"type":"Feature","properties":{"s":"or-10","t":4},"geometry":{"type":"Point","coordinates":[-122.829291,45.485477]}},{"type":"Feature","properties":{"s":"or-10","t":4},"geometry":{"type":"Point","coordinates":[-122.803029,45.486782]}},{"type":"Feature","properties":{"s":"or-10","t":4},"geometry":{"type":"Point","coordinates":[-122.777222,45.486535]}},{"type":"Feature","properties":{"s":"or-10","t":4},"geometry":{"type":"Point","coordinates":[-122.725193,45.485997]}},{"type":"Feature","properties":{"s":"or-43","t":0},"geometry":{"type":"Point","coordinates":[-122.610073,45.359449]}},{"type":"Feature","properties":{"s":"or-43","t":0},"geometry":{"type":"Point","coordinates":[-122.6729,45.497891]}},{"type":"Feature","properties":{"s":"or-43","t":2},"geometry":{"type":"Point","coordinates":[-122.642368,45.388029]}},{"type":"Feature","properties":{"s":"or-43","t":2},"geometry":{"type":"Point","coordinates":[-122.661574,45.454466]}},{"type":"Feature","properties":{"s":"or-43","t":3},"geometry":{"type":"Point","coordinates":[-122.627903,45.373042]}},{"type":"Feature","properties":{"s":"or-43","t":3},"geometry":{"type":"Point","coordinates":[-122.671684,45.471288]}},{"type":"Feature","properties":{"s":"or-43","t":4},"geometry":{"type":"Point","coordinates":[-122.617039,45.367976]}},{"type":"Feature","properties":{"s":"or-43","t":4},"geometry":{"type":"Point","coordinates":[-122.636505,45.37975]}},{"type":"Feature","properties":{"s":"or-43","t":4},"geometry":{"type":"Point","coordinates":[-122.650524,45.395508]}},{"type":"Feature","properties":{"s":"or-43","t":4},"geometry":{"type":"Point","coordinates":[-122.668525,45.462413]}},{"type":"Feature","properties":{"s":"or-43","t":4},"geometry":{"type":"Point","coordinates":[-122.673386,45.481118]}},{"type":"Feature","properties":{"s":"or-47","t":0},"geometry":{"type":"Point","coordinates":[-123.109312,45.507061]}},{"type":"Feature","properties":{"s":"or-47","t":3},"geometry":{"type":"Point","coordinates":[-123.086343,45.515471]}},{"type":"Feature","properties":{"s":"or-47","t":3},"geometry":{"type":"Point","coordinates":[-123.099624,45.531397]}},{"type":"Feature","properties":{"s":"or-47","t":4},"geometry":{"type":"Point","coordinates":[-123.096965,45.51013]}},{"type":"Feature","properties":{"s":"or-47","t":4},"geometry":{"type":"Point","coordinates":[-123.084293,45.526471]}},{"type":"Feature","properties":{"s":"or-47","t":4},"geometry":{"type":"Point","coordinates":[-123.107383,45.539938]}}]}